Name,Address,Address2,City,State,Zip,County,Lat,Long
VONS #2262, 710 BROADWAY,0,SANTA MONICA,CA,90401, LOS ANGELES,34.017175,-118.48998
VONS #2283, 1221 GAFFEY ST,0,SAN PEDRO,CA,90731, LOS ANGELES,33.732871,-118.29235
VONS #2268,S 1430 FAIRFAX AVE,0,LOS ANGELES,CA,90019, LOS ANGELES,34.050463,-118.36621
VONS #2273, 245 PALOS VERDES BLVD,0,REDONDO BEACH,CA,90277, LOS ANGELES,33.816212,-118.38615
VONS #2861,E 600 BROADWAY,0,LONG BEACH,CA,90802, LOS ANGELES,33.768831,-118.18426
VONS #3263,N 1342 ALVARADO ST,0,LOS ANGELES,CA,90027, LOS ANGELES,34.079701,-118.26218
VONS #2254,W 311 LOS FELIZ BLVD,0,GLENDALE,CA,91204, LOS ANGELES,34.128637,-118.2585
PAVILIONS #2226, 14845 VENTURA BLVD,0,SHERMAN OAKS,CA,91403, LOS ANGELES,34.152266,-118.45677
VONS #2261,W 3461 THIRD ST,0,LOS ANGELES,CA,90020, LOS ANGELES,34.069691,-118.2908
PAVILIONS #3237,W 9467 OLYMPIC BLVD,0,BEVERLY HILLS,CA,90212, LOS ANGELES,34.059997,-118.39979
SUPER A FOODS #07, 2925 DIVISION ST,0,LOS ANGELES,CA,90065, LOS ANGELES,34.103505,-118.23577
SUPER A FOODS #04, 13120 DOWNEY AVE,0,PARAMOUNT,CA,90723, LOS ANGELES,33.914099,-118.15132
SUPER A FOODS #05,E 6380 FLORENCE AVE,0,BELL GARDENS,CA,90201, LOS ANGELES,33.971926,-118.2027
VONS #2078, 9119 RESEDA BLVD,0,NORTHRIDGE,CA,91324, LOS ANGELES,34.235981,-118.53726
VONS #2034, 13730 FOOTHILL BLVD,0,SYLMAR,CA,91342, LOS ANGELES,34.309064,-118.43238
VONS #2077,S 3118 SEPULVEDA BLVD,0,LOS ANGELES,CA,90034, LOS ANGELES,34.02664,-118.42726
VONS #3083,N 301 PASS AVE,0,BURBANK,CA,91505, LOS ANGELES,34.154841,-118.34625
VONS #2108, 1212 BERYL ST,0,REDONDO BEACH,CA,90277, LOS ANGELES,33.854673,-118.38044
VONS #2124, 7789 FOOTHILL BLVD,0,TUJUNGA,CA,91042, LOS ANGELES,34.259128,-118.3017
RALPHS #710, 21431 DEVONSHIRE ST,0,CHATSWORTH,CA,91311, LOS ANGELES,34.257231,-118.59806
RALPHS #721, 22333 SHERMAN WAY,0,CANOGA PARK,CA,91303, LOS ANGELES,34.201803,-118.61353
JON'S MARKET #01,W 3667 THIRD ST,0,LOS ANGELES,CA,90020, LOS ANGELES,34.069029,-118.29585
RALPHS #278, 8701 LINCOLN BLVD,0,LOS ANGELES,CA,90045, LOS ANGELES,33.958046,-118.41838
VONS #2655,N 7311 FIGUEROA ST,0,LOS ANGELES,CA,90041, LOS ANGELES,34.136153,-118.18948
TRESIERRAS MARKET #1, 13158 VAN NUYS BLVD,0,PACOIMA,CA,91331, LOS ANGELES,34.267712,-118.41926
WHITTIER MARKET, 4045 WHITTIER BLVD,0,LOS ANGELES,CA,90023, LOS ANGELES,34.023929,-118.18459
TOP VALU #03, 10819 HAWTHORNE BLVD,0,LENNOX,CA,90304, LOS ANGELES,33.937568,-118.35326
RALPHS #251,E 2930 FOURTH ST,0,LONG BEACH,CA,90814, LOS ANGELES,33.771437,-118.15729
RALPHS #284, 10772 JEFFERSON BLVD,0,CULVER CITY,CA,90230, LOS ANGELES,34.002209,-118.39437
FOOD 4 LESS #326, 20155 SATICOY,0,CANOGA PARK,CA,91306, LOS ANGELES,34.208335,-118.57381
VONS #2272, 123 METROPOLE AVE,0,AVALON,CA,90704, LOS ANGELES,33.344135,-118.3272
VONS #2275, 410 MANHATTAN BEACH BLVD,0,MANHATTAN BEACH,CA,90266, LOS ANGELES,33.88506,-118.40785
VONS #2266, 17380 SUNSET BLVD,0,PACIFIC PALISADES,CA,90272, LOS ANGELES,34.039552,-118.55461
VONS #2858,E 2355 COLORADO BLVD,0,PASADENA,CA,91107, LOS ANGELES,34.146094,-118.10188
RALPHS #277,N 950 LA BREA AVE,0,INGLEWOOD,CA,90302, LOS ANGELES,33.975415,-118.35698
RALPHS #279, 4700 ADMIRALTY WAY,0,MARINA DEL REY,CA,90292, LOS ANGELES,33.979819,-118.43999
FOOD 4 LESS #375,S 1091 HOOVER ST,0,LOS ANGELES,CA,90006, LOS ANGELES,34.051066,-118.28418
RALPHS #274,W 1730 MANCHESTER AVE,0,LOS ANGELES,CA,90047, LOS ANGELES,33.959307,-118.3079
FOOD 4 LESS #767, 12689 GLENOAKS BLVD,0,SYLMAR,CA,91342, LOS ANGELES,34.300758,-118.44084
VONS #2162,W 1440 25TH ST,0,SAN PEDRO,CA,90732, LOS ANGELES,33.722968,-118.31088
VONS #2152,W 155 CALIFORNIA BLVD,0,PASADENA,CA,91105, LOS ANGELES,34.135817,-118.15293
VONS #2139,N 1390 ALLEN AVE,0,PASADENA,CA,91104, LOS ANGELES,34.170018,-118.11216
VONS #3138,W 16550 SOLEDAD CANYON RD,0,SANTA CLARITA,CA,91351, LOS ANGELES,34.416396,-118.45413
PAVILIONS #2105, 4365 GLENCOE AVE,0,MARINA DEL REY,CA,90292, LOS ANGELES,33.985192,-118.43939
VONS #3086,S 2122 HACIENDA BLVD,0,HACIENDA HEIGHTS,CA,91745, LOS ANGELES,33.995017,-117.96655
VONS #3076, 1820 XIMENO AVE,0,LONG BEACH,CA,90815, LOS ANGELES,33.790395,-118.13773
VONS #3075, 1129 FAIR OAKS AVE,0,SOUTH PASADENA,CA,91030, LOS ANGELES,34.112869,-118.15109
VONS #2066, 18439 VENTURA BLVD,0,TARZANA,CA,91356, LOS ANGELES,34.168805,-118.53441
VONS #2001, 5671 KANAN ROAD,0,AGOURA HILLS,CA,91301, LOS ANGELES,34.153397,-118.75742
VONS #2039, 19333 VICTORY BLVD,0,RESEDA,CA,91335, LOS ANGELES,34.187769,-118.55445
VONS #2027, 15740 LAFORGE ST,0,WHITTIER,CA,90603, LOS ANGELES,33.941129,-117.99422
VONS #4021,W 6571 80TH ST,0,LOS ANGELES,CA,90045, LOS ANGELES,33.969319,-118.40547
VONS #1625,W 1260 REDONDO BEACH BLVD,0,GARDENA,CA,90247, LOS ANGELES,33.891617,-118.29809
RALPHS #100, 7257 SUNSET BLVD,0,HOLLYWOOD,CA,90046, LOS ANGELES,34.098123,-118.30021
RALPHS #006, 17840 VENTURA BLVD,0,ENCINO,CA,91316, LOS ANGELES,34.162597,-118.52106
RALPHS #021, 1745 GARFIELD AVE,0,SOUTH PASADENA,CA,91030, LOS ANGELES,34.105124,-118.1355
RALPHS #032,W 3410 THIRD ST,0,LOS ANGELES,CA,90020, LOS ANGELES,34.069049,-118.28938
RALPHS #041,E 211 FOOTHILL BLVD,0,ARCADIA,CA,91006, LOS ANGELES,34.151641,-118.02509
RALPHS #044, 12057 WILSHIRE BLVD,0,LOS ANGELES,CA,90025, LOS ANGELES,34.044931,-118.46703
RALPHS #047, 7221 WOODMAN AVE,0,VAN NUYS,CA,91405, LOS ANGELES,34.201781,-118.43126
RALPHS #049, 10455 SUNLAND BLVD,0,SUNLAND,CA,91040, LOS ANGELES,34.260526,-118.3258
RALPHS #053, 9470 LAS TUNAS DR,0,TEMPLE CITY,CA,91780, LOS ANGELES,34.105509,-118.06407
RALPHS #055, 521 FOOTHILL BLVD,0,LA CANADA,CA,91011, LOS ANGELES,34.200506,-118.18998
RALPHS #058, 3380 LOS COYOTES DIAGONAL,0,LONG BEACH,CA,90808, LOS ANGELES,33.818123,-118.10881
RALPHS #063, 12921 MAGNOLIA BLVD,0,VAN NUYS,CA,91423, LOS ANGELES,34.165522,-118.41449
RALPHS #064, 14919 WHITTIER BLVD,0,WHITTIER,CA,90605, LOS ANGELES,33.949721,-118.00741
RALPHS #070, 20060 VENTURA BLVD,0,WOODLAND HILLS,CA,91364, LOS ANGELES,34.170048,-118.5703
RALPHS #156,W 10309 OLYMPIC BLVD,0,LOS ANGELES,CA,90064, LOS ANGELES,34.052436,-118.41788
STATER BROS. #057,E 1145 ALOSTA AVE,0,AZUSA,CA,91702, LOS ANGELES,34.129408,-117.88288
STATER BROS. #049,W 1055 FOOTHILL BLVD,0,CLAREMONT,CA,91711, LOS ANGELES,34.107106,-117.73499
STATER BROS. #006,E 1830 ROUTE 66,0,GLENDORA,CA,91740, LOS ANGELES,34.127318,-117.83006
STATER BROS. #048, 2090 FOOTHILL BLVD,0,LA VERNE,CA,91750, LOS ANGELES,34.112707,-117.76616
STATER BROS. #070, 12523 ALONDRA BLVD,0,NORWALK,CA,90650, LOS ANGELES,33.888443,-118.06554
STATER BROS. #019,N 1045 GAREY AVE,0,POMONA,CA,91767, LOS ANGELES,34.068311,-117.75288
STATER BROS. #067,E 19756 COLIMA RD,0,ROWLAND HEIGHTS,CA,91748, LOS ANGELES,33.986502,-117.8703
STATER BROS. #056,W 1425 ARROW HWY,0,SAN DIMAS,CA,91773, LOS ANGELES,34.107353,-117.83663
STATER BROS. #054, 1025 AMAR ST,0,WEST COVINA,CA,91790, LOS ANGELES,34.0356,-117.92444
STATER BROS. #015, 14212 MULBERRY ST,0,WHITTIER,CA,90604, LOS ANGELES,33.942743,-118.02746
RALPHS #743,W 320 COLORADO BLVD,0,PASADENA,CA,91105, LOS ANGELES,34.145205,-118.15712
RALPHS #742,W 1101 HUNTINGTON DR,0,ARCADIA,CA,91007, LOS ANGELES,34.131607,-118.06632
RALPHS #728, 2909 ROLLING HILLS RD,0,TORRANCE,CA,90505, LOS ANGELES,33.788641,-118.34094
RALPHS #724, 9040 BEVERLY BLVD,0,WEST HOLLYWOOD,CA,90048, LOS ANGELES,34.076756,-118.38921
RALPHS #715,N 330 ATLANTIC BLVD,0,MONTEREY PARK,CA,91754, LOS ANGELES,34.065157,-118.1343
RALPHS #711, 6657 LAUREL CANYON BLVD,0,NORTH HOLLYWOOD,CA,91606, LOS ANGELES,34.191769,-118.3965
VONS #2002, 1311 WILSHIRE BLVD,0,SANTA MONICA,CA,90403, LOS ANGELES,34.026257,-118.48981
RALPHS #269,S 11873 HAWTHORNE BLVD,0,HAWTHORNE,CA,90250, LOS ANGELES,33.926017,-118.35272
RALPHS #266,S 11922 VERMONT AVE,0,LOS ANGELES,CA,90044, LOS ANGELES,33.925023,-118.29099
RALPHS #250, 20137 PIONEER BLVD,0,LAKEWOOD,CA,90715, LOS ANGELES,33.847459,-118.08208
RALPHS #702, 14440 BURBANK BLVD,0,SHERMAN OAKS,CA,91401, LOS ANGELES,34.172116,-118.44782
RALPHS #704, 16940 DEVONSHIRE ST,0,GRANADA HILLS,CA,91344, LOS ANGELES,34.256727,-118.50153
RALPHS #709, 11361 NATIONAL BLVD,0,LOS ANGELES,CA,90064, LOS ANGELES,34.025511,-118.43295
JON'S MARKET #02, 6655 VAN NUYS BLVD,0,VAN NUYS,CA,91405, LOS ANGELES,34.192232,-118.44965
FOOD 4 LESS #336, 8620 WHITTIER BLVD,0,PICO RIVERA,CA,90660, LOS ANGELES,34.003093,-118.0881
VONS #2169,W 435 FOOTHILL BLVD,0,GLENDORA,CA,91741, LOS ANGELES,34.137091,-117.87167
RALPHS #017, 8325 LAUREL CANYON BLVD,0,SUN VALLEY,CA,91352, LOS ANGELES,34.223324,-118.39804
RALPHS #283, 5080 RODEO ROAD,0,LOS ANGELES,CA,90016, LOS ANGELES,34.021525,-118.35518
RALPHS #173, 9200 LAKEWOOD BLVD,0,DOWNEY,CA,90240, LOS ANGELES,33.955506,-118.11226
JON'S MARKET #03,W 3334 8TH ST,0,LOS ANGELES,CA,90005, LOS ANGELES,34.057467,-118.30127
FOOD 4 LESS #370, 4910 HUNTINGTON DR,0,LOS ANGELES,CA,90032, LOS ANGELES,34.086675,-118.17588
RALPHS #256,E 650 CARSON ST,0,CARSON,CA,90745, LOS ANGELES,33.83159,-118.26445
RALPHS #281, 910 LINCOLN BLVD,0,VENICE,CA,90291, LOS ANGELES,33.998416,-118.46181
FOOD 4 LESS #338, 11950 GARVEY AVE,0,EL MONTE,CA,91732, LOS ANGELES,34.062071,-118.01983
RALPHS #630,N 2270 LAKE AVE,0,ALTADENA,CA,91001, LOS ANGELES,34.185021,-118.13089
RALPHS #730,E 3601 FOOTHILL BLVD,0,PASADENA,CA,91107, LOS ANGELES,34.150175,-118.07547
RALPHS #731,W 23841 MALIBU RD,0,MALIBU,CA,90265, LOS ANGELES,34.032217,-118.69813
RALPHS #096,N 160 LAKE AVE,0,PASADENA,CA,91101, LOS ANGELES,34.148967,-118.13129
FOOD 4 LESS #381,S 1717 WESTERN AVE,0,LOS ANGELES,CA,90006, LOS ANGELES,34.042039,-118.3101
SUPERIOR GROCERS #102,S 7316 COMPTON AVE,0,LOS ANGELES,CA,90001, LOS ANGELES,33.973814,-118.24767
LONDON MARKET, 1814 ATLANTIC AVE,0,LONG BEACH,CA,90806, LOS ANGELES,33.790375,-118.18468
FOOD 4 LESS #322,E 1651 103RD ST,0,LOS ANGELES,CA,90002, LOS ANGELES,33.9432,-118.24455
FOOD 4 LESS #377, 12765 VAN NUYS BLVD,0,PACOIMA,CA,91331, LOS ANGELES,34.274445,-118.41064
RALPHS #083,E 13321 SOUTH ST,0,CERRITOS,CA,90703, LOS ANGELES,33.858729,-118.04782
RALPHS #085,S 16123 BELLFLOWER BLVD,0,BELLFLOWER,CA,90706, LOS ANGELES,33.887479,-118.12528
RALPHS #086, 3827 CULVER CENTER ST,0,CULVER CITY,CA,90232, LOS ANGELES,34.017495,-118.40769
RALPHS #087,N 1050 WESTERN AVE,0,SAN PEDRO,CA,90732, LOS ANGELES,33.752314,-118.30885
RALPHS #097,N 1200 CENTRAL AVE,0,GLENDALE,CA,91202, LOS ANGELES,34.164408,-118.25633
RALPHS #165, 5951 DEL AMO BLVD,0,LAKEWOOD,CA,90713, LOS ANGELES,33.847666,-118.11571
RALPHS #166, 2700 SEPULVEDA BLVD,0,MANHATTAN BEACH,CA,90266, LOS ANGELES,33.895841,-118.39593
LOS ANGELES COMMISSARY,N 438 AVIATION BLVD, BLDG 251,EL SEGUNDO,CA,90245, LOS ANGELES,33.921719,-118.37842
VONS #2110, 715 PIER AVE,0,HERMOSA BEACH,CA,90254, LOS ANGELES,33.865658,-118.39447
FOOD 4 LESS #341,E 4400 SLAUSON AVE,0,MAYWOOD,CA,90270, LOS ANGELES,33.986718,-118.18701
VONS #2111, 24160 LYONS AVE,0,SANTA CLARITA,CA,91321, LOS ANGELES,34.377432,-118.55741
SUPERIOR GROCERS #103,E 3831 MARTIN LUTHER KING BLVD,0,LYNWOOD,CA,90262, LOS ANGELES,33.928025,-118.19758
FOOD 4 LESS #378, 11840 WILMINGTON AVE,0,WILLOWBROOK,CA,90059, LOS ANGELES,33.92567,-118.23766
RALPHS #120, 1413 HAWTHORNE BLVD,0,REDONDO BEACH,CA,90278, LOS ANGELES,33.866759,-118.35354
RALPHS #262, 17500 CRENSHAW BLVD,0,TORRANCE,CA,90504, LOS ANGELES,33.871482,-118.32648
RALPHS #026, 5727 KANAN RD,0,AGOURA HILLS,CA,91301, LOS ANGELES,34.155205,-118.7584
RALPHS #088, 5035 PACIFIC COAST HWY,0,TORRANCE,CA,90505, LOS ANGELES,33.813116,-118.36771
RALPHS #110, 3455 SEPULVEDA BLVD,0,TORRANCE,CA,90505, LOS ANGELES,33.826793,-118.34761
RALPHS #185,W 5245 CENTINELA AVE,0,LOS ANGELES,CA,90045, LOS ANGELES,33.977306,-118.37238
RALPHS #186,N 1930 LAKEWOOD BLVD,0,LONG BEACH,CA,90815, LOS ANGELES,33.79185,-118.14138
HK SUPERMARKET,N 124 WESTERN AVE,0,LOS ANGELES,CA,90004, LOS ANGELES,34.074284,-118.30874
FOOD 4 LESS #324, 11245 LONG BEACH BLVD,0,LYNWOOD,CA,90262, LOS ANGELES,33.928584,-118.21107
JON'S MARKET #07, 5311 SANTA MONICA BLVD,0,LOS ANGELES,CA,90029, LOS ANGELES,34.091173,-118.30516
BAJA RANCH MARKET #1,W 328 HUNTINGTON DR,0,MONROVIA,CA,91016, LOS ANGELES,34.140313,-118.0064
RALPHS #726, 19340 SOLEDAD CANYON RD,0,CANYON COUNTRY,CA,91351, LOS ANGELES,34.414764,-118.4732
RALPHS #705, 15120 SUNSET BLVD,0,PACIFIC PALISADES,CA,90272, LOS ANGELES,34.045315,-118.52329
RALPHS #720, 30019 HAWTHORNE BLVD,0,PALOS VERDES PENINSU,CA,90274, LOS ANGELES,33.787778,-118.35829
PAVILIONS #2233, 7 PENINSULA CENTER,0,ROLLING HILLS ESTATE,CA,90274, LOS ANGELES,33.775855,-118.37646
VONS #2288, 2039 VERDUGO BLVD,0,MONTROSE,CA,91020, LOS ANGELES,34.204793,-118.22086
FOOD 4 LESS #321, 6920 SANTA FE AVE,0,HUNTINGTON PARK,CA,90255, LOS ANGELES,33.976154,-118.2296
TOP VALU #09, 421 PACIFIC AVE,0,LONG BEACH,CA,90802, LOS ANGELES,33.772003,-118.19412
STATER BROS. #106,N 375 AZUSA AVE,0,WEST COVINA,CA,91791, LOS ANGELES,34.076824,-117.90782
FOOD 4 LESS #306, 44455 VALLEY CENTRAL WAY,0,LANCASTER,CA,93536, LOS ANGELES,34.690578,-118.17346
VONS #2029, 4033 WEST AVE,  L,LANCASTER,CA,93536, LOS ANGELES,34.661177,-118.20249
FOOD 4 LESS #307, 6901 EASTERN AVE,0,BELL GARDENS,CA,90201, LOS ANGELES,33.970514,-118.16548
FOOD 4 LESS #309, 9635 LAUREL CANYON BLVD,0,PACOIMA,CA,91331, LOS ANGELES,34.245232,-118.41779
RALPHS #001, 2675 FOOTHILL BLVD,0,LA CRESCENTA,CA,91214, LOS ANGELES,34.222412,-118.23716
FOOD 4 LESS #379,W 1900 ROSECRANS AVE,0,COMPTON,CA,90220, LOS ANGELES,33.901555,-118.25227
RALPHS #039,S 260 LA BREA AVE,0,LOS ANGELES,CA,90036, LOS ANGELES,34.070018,-118.3435
VONS #3017, 3027 RANCHO VISTA BLVD,0,PALMDALE,CA,93551, LOS ANGELES,34.602873,-118.18433
SUPERIOR GROCERS #101,S 10211 AVALON BLVD,0,LOS ANGELES,CA,90003, LOS ANGELES,33.943674,-118.26514
HAWAII SUPERMARKET,E 120 VALLEY BLVD,0,SAN GABRIEL,CA,91776, LOS ANGELES,34.079156,-118.09888
VONS #2007,E 431 ARROW HIGHWAY,0,GLENDORA,CA,91740, LOS ANGELES,34.107018,-117.85635
VONS #2167,N 350 LEMON AVE,0,WALNUT,CA,91789, LOS ANGELES,34.019469,-117.86437
PAVILIONS #2200,W 130 FOOTHILL BLVD,0,MONROVIA,CA,91016, LOS ANGELES,34.151342,-118.00233
PAVILIONS #2203,E 5949 SPRING ST,0,LONG BEACH,CA,90808, LOS ANGELES,33.811609,-118.1158
PAVILIONS #2212, 11030 JEFFERSON BLVD,0,CULVER CITY,CA,90230, LOS ANGELES,33.997591,-118.3954
PAVILIONS #2224,E 845 CALIFORNIA BLVD,0,PASADENA,CA,91106, LOS ANGELES,34.137848,-118.13307
PAVILIONS #2228, 1213 FAIR OAKS AVE,0,SOUTH PASADENA,CA,91030, LOS ANGELES,34.111579,-118.15117
PAVILIONS #2229,N 727 VINE ST,0,LOS ANGELES,CA,90038, LOS ANGELES,34.084459,-118.3266
PAVILIONS #2231, 820 MONTANA AVE,0,SANTA MONICA,CA,90403, LOS ANGELES,34.02791,-118.49991
PAVILIONS #2232, 4705 TORRANCE BLVD,0,TORRANCE,CA,90503, LOS ANGELES,33.838355,-118.36331
JON'S MARKET #09, 1717 GLENOAKS BLVD,0,GLENDALE,CA,91201, LOS ANGELES,34.171527,-118.29009
PAVILIONS #2214, 1110 ALAMEDA AVE,0,BURBANK,CA,91506, LOS ANGELES,34.1629,-118.31415
RALPHS #245, 11825 WHITTIER BLVD,0,WHITTIER,CA,90601, LOS ANGELES,33.980945,-118.04973
RALPHS #095, 2230 ATLANTIC BLVD,0,MONTEREY PARK,CA,91754, LOS ANGELES,34.038186,-118.14535
FOOD 4 LESS #313, 14500 OCEAN GATE AVE,0,HAWTHORNE,CA,90250, LOS ANGELES,33.89959,-118.36707
FOOD 4 LESS #317, 6700 CHERRY AVE,0,LONG BEACH,CA,90805, LOS ANGELES,33.877399,-118.16772
RALPHS #202, 1100 PACIFIC COAST HWY,0,HERMOSA BEACH,CA,90254, LOS ANGELES,33.863931,-118.39163
RALPHS #056, 10900 MAGNOLIA BLVD,0,NORTH HOLLYWOOD,CA,91601, LOS ANGELES,34.164392,-118.36819
SHUN FAT SUPERMARKET,N 421 ATLANTIC BLVD,0,MONTEREY PARK,CA,91754, LOS ANGELES,34.067356,-118.13482
TOP VALU #14, 4831 WHITTIER BLVD,0,EAST LOS ANGELES,CA,90022, LOS ANGELES,34.021861,-118.16419
RALPHS #081, 21909 VENTURA BLVD,0,WOODLAND HILLS,CA,91364, LOS ANGELES,34.169119,-118.60406
VALLARTA SUPERMARKET #7, 13820 FOOTHILL BLVD,0,SYLMAR,CA,91342, LOS ANGELES,34.31019,-118.43489
FOOD 4 LESS #323, 16530 SHERMAN WAY,0,VAN NUYS,CA,91406, LOS ANGELES,34.200645,-118.49354
RALPHS #280, 4311 LINCOLN BLVD,0,MARINA DEL REY,CA,90292, LOS ANGELES,33.984541,-118.44335
FOOD 4 LESS #344,S 5318 MAIN ST,0,LOS ANGELES,CA,90037, LOS ANGELES,33.993945,-118.27338
JON'S MARKET #11,N 1601 VERMONT AVE,0,LOS ANGELES,CA,90027, LOS ANGELES,34.10022,-118.29246
RALPHS #060,E 1416 COLORADO ST,0,GLENDALE,CA,91205, LOS ANGELES,34.141843,-118.23329
FOOD 4 LESS #337,N 615 AZUSA AVE,0,WEST COVINA,CA,91791, LOS ANGELES,34.081494,-117.90894
RALPHS #289, 5601 WILSHIRE BLVD,0,LOS ANGELES,CA,90036, LOS ANGELES,34.062921,-118.35096
EL SERENO MARKET, 4837 HUNTINGTON DR, UNIT 3,LOS ANGELES,CA,90032, LOS ANGELES,34.086299,-118.17902
RALPHS #219, 16325 VENTURA BLVD,0,ENCINO,CA,91436, LOS ANGELES,34.157643,-118.48938
RALPHS #209, 8824 SEPULVEDA BLVD,0,LOS ANGELES,CA,90045, LOS ANGELES,33.956867,-118.39614
RALPHS #291,W 4760 PICO BLVD,0,LOS ANGELES,CA,90019, LOS ANGELES,34.04842,-118.3398
ENSENADA MEAT MARKET,W 851-853 GARDENA BLVD,0,GARDENA,CA,90247, LOS ANGELES,33.88162,-118.29035
R-RANCH MARKET #4,S 8601 HOOPER,0,LOS ANGELES,CA,90002, LOS ANGELES,33.960155,-118.25398
MAMI MARKET,S 6922 WESTERN AVE,0,LOS ANGELES,CA,90047, LOS ANGELES,33.976967,-118.30896
HENRY'S MARKET,S 18409 AVALON BLVD,0,CARSON,CA,90746, LOS ANGELES,33.885758,-118.2652
VALLARTA SUPERMARKETS #4,E 440 PALMDALE BLVD,0,PALMDALE,CA,93550, LOS ANGELES,34.579276,-118.12228
FOOD 4 LESS #376, 19200 SOLEDAD CANYON RD,0,SANTA CLARITA,CA,91351, LOS ANGELES,34.414754,-118.47079
FOOD 4 LESS #366, 10901 IMPERIAL HWY,0,NORWALK,CA,90650, LOS ANGELES,33.918081,-118.10145
FOOD 4 LESS #363,E 2750 FIRST ST,0,LOS ANGELES,CA,90033, LOS ANGELES,34.041379,-118.20451
FOOD 4 LESS #362, 5420 SUNSET BLVD,0,HOLLYWOOD,CA,90027, LOS ANGELES,34.098103,-118.30748
FOOD 4 LESS #360,E 2341 AVENUE  S,0,PALMDALE,CA,93550, LOS ANGELES,34.559114,-118.08611
RALPHS #210, 11727 OLYMPIC BLVD,0,LOS ANGELES,CA,90064, LOS ANGELES,34.033982,-118.44834
RALPHS #293, 1233 NORTH LA BREA AVE,0,WEST HOLLYWOOD,CA,90038, LOS ANGELES,34.093433,-118.34408
NORTHGATE MARKET #3, 21423 NORWALK BLVD,0,HAWAIIAN GARDENS,CA,90716, LOS ANGELES,33.834776,-118.07204
FOOD 4 LESS #368,W 851 SEPULVEDA BLVD,0,TORRANCE,CA,90502, LOS ANGELES,33.811196,-118.28894
FOOD 4 LESS #383, 7810 NORWALK BLVD,0,SANTA FE SPRINGS,CA,90606, LOS ANGELES,33.959616,-118.071
FOOD 4 LESS #364,W 3200 CENTURY BLVD,0,INGLEWOOD,CA,90303, LOS ANGELES,33.945191,-118.32836
FOOD 4 LESS #367,E 2185 SOUTH ST,0,LONG BEACH,CA,90805, LOS ANGELES,33.8614,-118.16661
FOOD 4 LESS #314, 8530 TOBIAS AVE,0,PANORAMA CITY,CA,91402, LOS ANGELES,34.225318,-118.45166
SUPERIOR GROCERS #107,S 6010 PACIFIC BLVD,0,HUNTINGTON PARK,CA,90255, LOS ANGELES,33.986736,-118.22521
SUPERIOR GROCERS #105, 7300 ATLANTIC AVE,0,CUDAHY,CA,90201, LOS ANGELES,33.9687,-118.18713
SUPERIOR GROCERS #106,W 1201 WHITTIER BLVD,0,MONTEBELLO,CA,90640, LOS ANGELES,34.011044,-118.11318
FOOD 4 LESS #369,N 1821 HACIENDA BLVD,0,LA PUENTE,CA,91744, LOS ANGELES,34.052114,-117.94407
RALPHS #171,S 655 GRAND AVE,0,GLENDORA,CA,91740, LOS ANGELES,34.127735,-117.87381
VONS #3517, 24325 CRENSHAW BLVD,0,TORRANCE,CA,90503, LOS ANGELES,33.804094,-118.32797
BIG SAVER FOODS #08,E 7619 GARVEY AVE,0,ROSEMEAD,CA,91770, LOS ANGELES,34.062681,-118.1029
RALPHS #198,W 9616 PICO BLVD,0,LOS ANGELES,CA,90035, LOS ANGELES,34.05512,-118.39817
RALPHS #295, 8626 FIRESTONE BLVD,0,DOWNEY,CA,90241, LOS ANGELES,33.93705,-118.12719
R & G'S FOOD BASKET, 14407 PIONEER BLVD,0,NORWALK,CA,90650, LOS ANGELES,33.900015,-118.08307
RALPHS #292, 1644 CLOVERFIELD BLVD,0,SANTA MONICA,CA,90404, LOS ANGELES,34.027046,-118.47382
FOOD 4 LESS #332, 8035 WEBB AVE,0,NORTH HOLLYWOOD,CA,91605, LOS ANGELES,34.216278,-118.3894
RALPHS #016,S 670 WESTERN AVE,0,LOS ANGELES,CA,90005, LOS ANGELES,34.06003,-118.30851
RALPHS #147,N 27760 MCBEAN PKWY,0,VALENCIA,CA,91354, LOS ANGELES,34.444523,-118.55332
VALU MART FOOD WAREHOUSE,N 6340 ROSEMEAD BLVD,0,TEMPLE CITY,CA,91780, LOS ANGELES,34.113426,-118.07371
RALPHS #757, 24975 PICO CANYON RD,0,STEVENSON RANCH,CA,91381, LOS ANGELES,34.381542,-118.57229
PLAZA MARKET, 4121 CITY TERRACE DR,0,LOS ANGELES,CA,90063, LOS ANGELES,34.055983,-118.17687
RALPHS #178,E 6290 PACIFIC COAST HWY,0,LONG BEACH,CA,90803, LOS ANGELES,33.761633,-118.1145
RALPHS #294,S 2600 VERMONT AVE,0,LOS ANGELES,CA,90007, LOS ANGELES,34.032014,-118.29066
FOOD 4 LESS #330,E 3654 OLYMPIC BLVD,0,LOS ANGELES,CA,90023, LOS ANGELES,34.018831,-118.19827
RALPHS #213, 22915 VICTORY BLVD,0,CANOGA PARK,CA,91307, LOS ANGELES,34.186999,-118.62684
VONS #2250, 16830 SAN FERNANDO MISSION BLVD,0,GRANADA HILLS,CA,91344, LOS ANGELES,34.271236,-118.50014
FOOD 4 LESS #348, 18318 VANOWEN ST,0,RESEDA,CA,91335, LOS ANGELES,34.193869,-118.53209
VALLARTA SUPERMARKETS #9, 10859 OXNARD ST,0,NORTH HOLLYWOOD,CA,91606, LOS ANGELES,34.180289,-118.36762
LA MEXICANA MARKET,S 4800 COMPTON AVE,0,LOS ANGELES,CA,90011, LOS ANGELES,34.000204,-118.24777
R-RANCH MARKET #6,N 1800-1900 LONG BEACH BLVD,0,COMPTON,CA,90221, LOS ANGELES,33.898573,-118.20812
EL SUPER #01, 5702 FIRESTONE BLVD,0,SOUTH GATE,CA,90280, LOS ANGELES,33.949185,-118.16608
LORENA'S MARKET,S 6725 BROADWAY,0,LOS ANGELES,CA,90003, LOS ANGELES,33.978878,-118.2783
VALLARTA SUPERMARKET #5, 8453 RESEDA BLVD,0,NORTHRIDGE,CA,91324, LOS ANGELES,34.224319,-118.5366
51ST PRODUCE,S 5026 AVALON BLVD,0,LOS ANGELES,CA,90011, LOS ANGELES,34.005918,-118.26525
FOOD 4 LESS #396, 3000 BALDWIN PARK BLVD,0,BALDWIN PARK,CA,91706, LOS ANGELES,34.069082,-117.97855
RALPHS #646, 18010 CHATSWORTH ST,0,GRANADA HILLS,CA,91344, LOS ANGELES,34.264905,-118.52432
RALPHS #645,N 500 SEPULVEDA BLVD,0,EL SEGUNDO,CA,90245, LOS ANGELES,33.922587,-118.39557
LUIS MEAT MARKET,S 4253 VERMONT AVE,0,LOS ANGELES,CA,90037, LOS ANGELES,34.006197,-118.29154
SUPERIOR GROCERS #108,S 8811 WESTERN AVE,0,LOS ANGELES,CA,90047, LOS ANGELES,33.957644,-118.30971
JON'S MARKET #14,E 600 COLORADO ST,0,GLENDALE,CA,91205, LOS ANGELES,34.142391,-118.24817
FOOD 4 LESS #358,S 2090 GAREY AVE,0,POMONA,CA,91766, LOS ANGELES,34.034335,-117.7481
FOOD 4 LESS #350,W 1299 ARTESIA BLVD,0,GARDENA,CA,90248, LOS ANGELES,33.873566,-118.29343
BIG SAVER FOODS #10,E 12832 ROSECRANS AVE,0,NORWALK,CA,90650, LOS ANGELES,33.902285,-118.0593
DEL MAR SUPERMARKET, 7822 GARVEY AVE,0,ROSEMEAD,CA,91770, LOS ANGELES,34.062037,-118.09882
CHILDREN NUTRITION,W 312 COMPTON BLVD, UNIT 103,COMPTON,CA,90220, LOS ANGELES,33.895848,-118.22718
SUPER DISCOUNT MARKET,E 3980 OLYMPIC BLVD,0,LOS ANGELES,CA,90023, LOS ANGELES,34.01886,-118.1897
GUADALAJARA MEAT MARKET,S 14114 VERMONT AVE,0,GARDENA,CA,90247, LOS ANGELES,33.903455,-118.29118
FAMILY FARM MARKET,S 4322 CENTRAL AVE,0,LOS ANGELES,CA,90011, LOS ANGELES,34.005175,-118.25612
RALPHS #205, 4754 COMMONS WAY,0,CALABASAS,CA,91302, LOS ANGELES,34.154462,-118.64495
RALPHS #648,W 2600 VICTORY BLVD,0,BURBANK,CA,91505, LOS ANGELES,34.183663,-118.33954
VONS #1671, 20440 DEVONSHIRE ST,0,CHATSWORTH,CA,91311, LOS ANGELES,34.257257,-118.57838
VONS #1674, 4033 LAUREL CANYON BLVD,0,STUDIO CITY,CA,91604, LOS ANGELES,34.144613,-118.39617
VILLA MARKET, 2990 SANTA FE AVE,0,LONG BEACH,CA,90810, LOS ANGELES,33.811196,-118.21487
RALPHS #196,E 2250 CARSON ST,0,LONG BEACH,CA,90807, LOS ANGELES,33.83122,-118.16519
JON'S MARKET #15, 20151 ROSCOE BLVD,0,WINNETKA,CA,91306, LOS ANGELES,34.220168,-118.57285
RALPHS #193,E 25 ALAMEDA AVE,0,BURBANK,CA,91502, LOS ANGELES,34.173661,-118.30149
RALPHS #111, 2201 REDONDO BEACH BLVD,0,GARDENA,CA,90247, LOS ANGELES,33.885704,-118.31783
FOOD 4 LESS #359,W 1748 JEFFERSON BLVD,0,LOS ANGELES,CA,90018, LOS ANGELES,34.025229,-118.30744
B-2 MARKET,E 1002 AVENUE R,0,PALMDALE,CA,93550, LOS ANGELES,34.579524,-118.11165
LOS PAISANOS MEAT MARKET, 9201 LONG BEACH BLVD, STE A-B,SOUTH GATE,CA,90280, LOS ANGELES,33.952468,-118.21838
LEE'S MARKET,S 4801 AVALON BLVD,0,LOS ANGELES,CA,90011, LOS ANGELES,34.005918,-118.26525
CARDENAS MARKET #6,S 2001 GAREY AVE,0,POMONA,CA,91766, LOS ANGELES,34.0351,-117.75069
VALLARTA SUPERMARKETS #12, 21555 ROSCOE BLVD,0,CANOGA PARK,CA,91304, LOS ANGELES,34.220363,-118.60067
SUPER A FOODS #11, 5250 YORK BLVD,0,HIGHLAND PARK,CA,90042, LOS ANGELES,34.120022,-118.20088
STATER BROS. #130,E 2535 AVENUE S,0,PALMDALE,CA,93550, LOS ANGELES,34.559079,-118.08364
STATER BROS. #134, 12800 LA MIRADA BLVD,0,LA MIRADA,CA,90638, LOS ANGELES,33.915962,-118.01135
STATER BROS. #137,E 11750 WHITTIER BLVD,0,WHITTIER,CA,90601, LOS ANGELES,33.98117,-118.0512
STATER BROS. #141, 26900 SIERRA HIGHWAY,0,SANTA CLARITA,CA,91321, LOS ANGELES,34.404141,-118.46515
STATER BROS. #144,E 1850 AVENUE J,0,LANCASTER,CA,93535, LOS ANGELES,34.689558,-118.09626
STATER BROS. #145, 37218 47TH ST E,0,PALMDALE,CA,93552, LOS ANGELES,34.559404,-118.04398
STATER BROS. #146,W 2845 AVENUE L,0,LANCASTER,CA,93536, LOS ANGELES,34.661196,-118.18248
STATER BROS. #153,E 8640 ALONDRA BLVD,0,PARAMOUNT,CA,90723, LOS ANGELES,33.888676,-118.15088
STATER BROS. #154, 11300 FIRESTONE BLVD,0,NORWALK,CA,90650, LOS ANGELES,33.917796,-118.09254
STATER BROS. #155,E 7814 FIRESTONE BLVD,0,DOWNEY,CA,90241, LOS ANGELES,33.94476,-118.14177
STATER BROS. #160,E 6501 SPRING ST,0,LONG BEACH,CA,90808, LOS ANGELES,33.810541,-118.10624
STATER BROS. #161, 11815 ARTESIA BLVD,0,ARTESIA,CA,90701, LOS ANGELES,33.874221,-118.0809
STATER BROS. #164,S 17220 LAKEWOOD BLVD,0,BELLFLOWER,CA,90706, LOS ANGELES,33.902284,-118.14276
STATER BROS. #168, 20677 AMAR ROAD,0,WALNUT,CA,91789, LOS ANGELES,34.042655,-117.85162
AMIGOS NUTRITION CENTER #2,E 336 ORANGE GROVE BLVD,0,PASADENA,CA,91104, LOS ANGELES,34.15786,-118.14345
AMAPOLA MEXICAN DELI,E 7420 FLORENCE AVE,0,DOWNEY,CA,90240, LOS ANGELES,33.958641,-118.14011
VALLARTA SUPERMARKETS #11, 21208 SHERMAN WAY,0,CANOGA PARK,CA,91303, LOS ANGELES,34.200599,-118.59486
SHARY'S DISCOUNT MARKET $.98,N 1199 WESTERN AVE,0,LOS ANGELES,CA,90029, LOS ANGELES,34.092784,-118.30919
FOOD 4 LESS #760,W 336 ANAHEIM ST,0,WILMINGTON,CA,90744, LOS ANGELES,33.779072,-118.26562
BIG SAVER FOODS #12,E 13925 AMAR RD,0,LA PUENTE,CA,91746, LOS ANGELES,34.052397,-117.97261
SAN DIEGO MARKET,S 1131 UNION AVE,0,LOS ANGELES,CA,90015, LOS ANGELES,34.046907,-118.27577
VONS #1623, 4001 INGLEWOOD AVE,0,REDONDO BEACH,CA,90278, LOS ANGELES,33.892834,-118.36224
RALPHS #127, 19781 RINALDI ST,0,NORTHRIDGE,CA,91326, LOS ANGELES,34.276015,-118.56398
RALPHS #133, 10901 VENTURA BLVD,0,STUDIO CITY,CA,91604, LOS ANGELES,34.14049,-118.36848
HAPPY NUTRITION #2, 14712 PARTHENIA ST, STE C,PANORAMA CITY,CA,91402, LOS ANGELES,34.2278,-118.45408
MOMMY'S NUTRITIONAL CENTER,N 312 GAFFEY ST, UNIT 100,SAN PEDRO,CA,90731, LOS ANGELES,33.745365,-118.29198
EL SUPER #02, 14620 PARTHENIA ST,0,PANORAMA CITY,CA,91402, LOS ANGELES,34.227462,-118.4509
RALPHS #134,N 211 GLENDALE AVE,0,GLENDALE,CA,91206, LOS ANGELES,34.148724,-118.24837
JON'S MARKET #16, 12122 MAGNOLIA BLVD,0,NORTH HOLLYWOOD,CA,91607, LOS ANGELES,34.164875,-118.39727
MID TOWN MARKET,W 2825 JAMES M. WOOD BLVD,0,LOS ANGELES,CA,90006, LOS ANGELES,34.055888,-118.28999
EL CARRUCEL FOOD NUTRITION,E 1818 COMPTON BLVD,0,COMPTON,CA,90221, LOS ANGELES,33.895739,-118.20314
PETER PAN MARKET,W 2791 PICO BLVD,0,LOS ANGELES,CA,90006, LOS ANGELES,34.047526,-118.30015
CORKY'S MARKET,E 2401 15TH ST,0,LONG BEACH,CA,90804, LOS ANGELES,33.786229,-118.16322
VALLARTA SUPERMARKETS #15, 13940 RAMONA BLVD,0,BALDWIN PARK,CA,91706, LOS ANGELES,34.083495,-117.96872
PALOMINO MARKET, 6159 HELIOTROPE AVE,0,MAYWOOD,CA,90270, LOS ANGELES,33.980986,-118.17965
TORITO MARKET, 10804 JUNIPER ST,0,LOS ANGELES,CA,90059, LOS ANGELES,33.937464,-118.23297
EL POTRILLO MARKET,W 4151 3RD ST, STE D,LOS ANGELES,CA,90020, LOS ANGELES,34.069218,-118.30466
FOOD 4 LESS #354, 16208 PARTHENIA ST,0,NORTH HILLS,CA,91343, LOS ANGELES,34.227613,-118.4861
FOOD 4 LESS #772,E 1600 WILLOW ST,0,SIGNAL HILL,CA,90755, LOS ANGELES,33.8037,-118.17046
SUPERIOR GROCERS #112,E 111 COMPTON BLVD,0,COMPTON,CA,90220, LOS ANGELES,33.896962,-118.22308
SUPERIOR GROCERS #111, 9801 LAUREL CANYON BLVD,0,PACOIMA,CA,91331, LOS ANGELES,34.247317,-118.42129
CALI-MEX FAMILY MARKET,N 6604 FIGUEROA ST,0,HIGHLAND PARK,CA,90042, LOS ANGELES,34.122348,-118.18438
VONS #1638, 4226 WOODRUFF AVE,0,LAKEWOOD,CA,90713, LOS ANGELES,33.83512,-118.1156
MORE 4 LESS,S 10207 VERMONT AVE,0,LOS ANGELES,CA,90059, LOS ANGELES,33.944049,-118.2919
FOOD 4 LESS #778, 13525 LAKEWOOD BLVD,0,DOWNEY,CA,90242, LOS ANGELES,33.904597,-118.14395
WALNUT PRODUCE MARKET,E 2690 FLORENCE AVE,0,HUNTINGTON PARK,CA,90255, LOS ANGELES,33.973955,-118.22258
SMILE FOOD #2,E 16 MARKET ST,0,LONG BEACH,CA,90805, LOS ANGELES,33.854025,-118.19583
FOOD 4 LESS #775, 12222 CARSON ST,0,HAWAIIAN GARDENS,CA,90716, LOS ANGELES,33.83142,-118.07145
RALPHS #132, 1770 CARSON ST,0,TORRANCE,CA,90501, LOS ANGELES,33.831451,-118.31098
NUTRITION CENTER U.S.A., 12100 VALLEY BLVD, STE 106,EL MONTE,CA,91732, LOS ANGELES,34.06093,-118.01668
FOOD 4 LESS #766,N 5100 FIGUEROA ST,0,LOS ANGELES,CA,90042, LOS ANGELES,34.105365,-118.20005
MARCY'S NUTRITION #1,S 8320 COMPTON AVE,0,LOS ANGELES,CA,90001, LOS ANGELES,33.962768,-118.24766
LOS 3 POTRILLOS CARNICERIA, 14920 VICTORY BLVD,0,VAN NUYS,CA,91411, LOS ANGELES,34.186649,-118.45826
FOOD 4 LESS #777,W 1820 SLAUSON AVE,0,LOS ANGELES,CA,90047, LOS ANGELES,33.988027,-118.31103
SUPERIOR GROCERS #113, 3600 CESAR E. CHAVEZ AVE,0,LOS ANGELES,CA,90063, LOS ANGELES,34.040528,-118.18702
RALPHS #759, 10861 WEYBURN AVE,0,WESTWOOD,CA,90024, LOS ANGELES,34.0633845,-118.44371
FOOD 4 LESS #770,W 1700 6TH ST,0,LOS ANGELES,CA,90017, LOS ANGELES,34.057302,-118.26986
LOS ANGELITOS NUTRITIONAL PROD,S 11020 AVALON BLVD,0,LOS ANGELES,CA,90061, LOS ANGELES,33.935497,-118.26516
SUPERIOR GROCERS #115,N 1375 CITRUS AVE,0,COVINA,CA,91722, LOS ANGELES,34.104737,-117.89024
EL SUPER #03, 5646 WHITTIER BLVD,0,COMMERCE,CA,90022, LOS ANGELES,34.017698,-118.14915
RALPHS #206, 5429 HOLLYWOOD BLVD,0,LOS ANGELES,CA,90027, LOS ANGELES,34.101742,-118.30818
AMERICAN NUTRITIONAL, 13749 FOOTHILL BLVD,0,SYLMAR,CA,91342, LOS ANGELES,34.309743,-118.43277
CAMILA'S NUTRITION,S 8628 CENTRAL AVE,0,LOS ANGELES,CA,90002, LOS ANGELES,33.959904,-118.25639
NUTRITION FOOD #3,E 1800 FIRESTONE BLVD,0,LOS ANGELES,CA,90001, LOS ANGELES,33.960155,-118.24066
VONS #1707,N 561 GLENDALE AVE,0,GLENDALE,CA,91206, LOS ANGELES,34.155264,-118.24497
LA POBLANA CARNICERIA,E 5928 WHITTIER BLVD,0,LOS ANGELES,CA,90022, LOS ANGELES,34.017421,-118.14317
EL SUPER #04,E 3405 CESAR E CHAVEZ AVE,0,EAST LOS ANGELES,CA,90063, LOS ANGELES,34.04051,-118.19231
SUPERIOR GROCERS #114,S 151 HACIENDA BLVD,0,CITY OF INDUSTRY,CA,91745, LOS ANGELES,34.021785,-117.95849
BUY LOW MARKET #2,E 9900 GARVEY AVE,0,EL MONTE,CA,91733, LOS ANGELES,34.062721,-118.05222
BUY LOW MARKET,N 250 LA BREA AVE,0,INGLEWOOD,CA,90301, LOS ANGELES,33.96665,-118.35363
PACIFIC NUTRITION, 2049 PACIFIC AVE,0,LONG BEACH,CA,90806, LOS ANGELES,33.794479,-118.19378
BIG SAVER FOODS #13, 16000 WOODRUFF AVE,0,BELLFLOWER,CA,90706, LOS ANGELES,33.888779,-118.11649
VONS #2598, 3233 FOOTHILL BLVD,0,LA CRESCENTA,CA,91214, LOS ANGELES,34.230769,-118.24916
SUPERIOR GROCERS #116, 5824 VERMONT AVE,0,LOS ANGELES,CA,90044, LOS ANGELES,33.989112,-118.29147
HAPPY FAMILY NUTRITIONAL CTR, 6100 ATLANTIC AVE, STE B,MAYWOOD,CA,90270, LOS ANGELES,33.983538,-118.18613
PATITO NUTRITIONAL CENTER,W 1234 LOMITA BLVD, UNIT P,HARBOR CITY,CA,90710, LOS ANGELES,33.797729,-118.29856
LOS ANGELITOS NUTRITIONAL PROD, 739 ROSECRANS AVE, UNIT F,COMPTON,CA,90222, LOS ANGELES,33.903451,-118.21592
JON'S MARKET #19, 7134 SEPULVEDA BLVD,0,VAN NUYS,CA,91405, LOS ANGELES,34.199565,-118.4662
AAA HEALTHY NUTRITION,E 7728 GARVEY AVE, STE 1,ROSEMEAD,CA,91770, LOS ANGELES,34.062558,-118.10123
EL MERCADO #2,E 1168 4TH ST,0,LONG BEACH,CA,90802, LOS ANGELES,33.771539,-118.17657
SUPERIOR GROCERS #117, 1033 LONG BEACH BLVD,0,LONG BEACH,CA,90813, LOS ANGELES,33.779736,-118.18998
TYLER MARKET, 4022 TYLER AVE,0,EL MONTE,CA,91731, LOS ANGELES,34.080563,-118.0319
CALIFORNIA KIDS NUTR. CENTER,E 4505 SLAUSON AVE, STE D,MAYWOOD,CA,90270, LOS ANGELES,33.987362,-118.18476
SUPERIOR GROCERS #118, 6140 LANKERSHIM BLVD,0,NORTH HOLLYWOOD,CA,91606, LOS ANGELES,34.182039,-118.38427
LA TROPICANA MARKET, 5200 MONTE VISTA ST,0,LOS ANGELES,CA,90042, LOS ANGELES,34.108451,-118.20082
RALPHS #040, 9320 SLAUSON AVE,0,PICO RIVERA,CA,90660, LOS ANGELES,33.968354,-118.09882
US FOOD MARKET,W 1451 WASHINGTON BLVD,0,LOS ANGELES,CA,90007, LOS ANGELES,34.040334,-118.28796
EL SUPER #05, 12727 SHERMAN WAY,0,NORTH HOLLYWOOD,CA,91605, LOS ANGELES,34.201204,-118.41228
LA BODEGA MARKET #4,E 1420 ANAHEIM ST,0,LONG BEACH,CA,90813, LOS ANGELES,33.78236,-118.17383
LA SANTANECA MEAT MARKET, 11400 LONG BEACH BLVD,0,LYNWOOD,CA,90262, LOS ANGELES,33.927348,-118.21052
PICO MARKET,E 8329 WHITTIER BLVD,0,PICO RIVERA,CA,90660, LOS ANGELES,34.006538,-118.09591
VALLARTA SUPERMARKET #17, 10950 SHERMAN WAY,0,BURBANK,CA,91505, LOS ANGELES,34.200283,-118.36852
VALLARTA SUPERMARKET #20,E 1803 PALMDALE BLVD,0,PALMDALE,CA,93550, LOS ANGELES,34.580865,-118.096
SUPERIOR GROCERS #119, 5450 CHERRY AVE,0,LONG BEACH,CA,90805, LOS ANGELES,33.856023,-118.16652
R-RANCH MARKET #14,W 5212 ADAMS BLVD,0,LOS ANGELES,CA,90016, LOS ANGELES,34.031765,-118.35599
BIG SAVER FOODS #15,W 1500 WILLOW ST,0,LONG BEACH,CA,90810, LOS ANGELES,33.803777,-118.21272
BIG SAVER FOODS #16,S 14310 HAWTHORNE BLVD,0,LAWNDALE,CA,90260, LOS ANGELES,33.901272,-118.35239
JON'S MARKETPLACE #24, 18135 SHERMAN WAY,0,RESEDA,CA,91335, LOS ANGELES,34.202129,-118.52883
PAYLESS FOODS #10,E 620 EL SEGUNDO BLVD,0,LOS ANGELES,CA,90059, LOS ANGELES,33.915331,-118.26473
BEST BARGAIN,W 209 ARBOR VITAE ST,0,INGLEWOOD,CA,90301, LOS ANGELES,33.9527,-118.35845
EL SUPER #07, 7000 ALAMEDA ST,0,HUNTINGTON PARK,CA,90255, LOS ANGELES,33.98357,-118.23629
VALLARTA SUPERMARKETS #25, 3425 WHITTIER BLVD,0,LOS ANGELES,CA,90023, LOS ANGELES,34.027825,-118.20019
SUPERIOR GROCERS #123,S 11202 CRENSHAW BLVD,0,INGLEWOOD,CA,90303, LOS ANGELES,33.932407,-118.32471
WAL-MART SUPERCENTER #1660, 40130 10TH ST W,0,PALMDALE,CA,93551, LOS ANGELES,34.611573,-118.14536
WINCO FOODS #57, 90 RIO RANCHO RD,0,POMONA,CA,91766, LOS ANGELES,34.026436,-117.76132
CARDENAS MARKET #16,E 690 HOLT BLVD,0,POMONA,CA,91767, LOS ANGELES,34.062705,-117.73774
VALLARTA SUPERMARKETS #18, 10161 SAN FERNANDO RD,0,PACOIMA,CA,91331, LOS ANGELES,34.25488,-118.41066
ADVANCE FOOD MARKET,W 5469 ADAMS BLVD,0,LOS ANGELES,CA,90016, LOS ANGELES,34.03274,-118.36204
FOOD 4 LESS #761, 13413 TELEGRAPH RD,0,WHITTIER,CA,90605, LOS ANGELES,33.93981,-118.0457
WAL-MART SUPERCENTER #3523, 26471 CARL BOYER DR,0,SANTA CLARITA,CA,91350, LOS ANGELES,34.414415,-118.50648
VALLARTA SUPERMARKET #01, 13051 VICTORY BLVD,0,NORTH HOLLYWOOD,CA,91606, LOS ANGELES,34.188931,-118.41718
RALPHS #048,W 3300 SLAUSON AVE,0,LOS ANGELES,CA,90043, LOS ANGELES,33.989015,-118.3294
RALPHS #084, 29675 THE OLD RD N,0,CASTAIC,CA,91384, LOS ANGELES,34.456965,-118.61747
WAL-MART SUPERCENTER #5154, 1827 WALNUT GROVE BLVD,0,ROSEMEAD,CA,91770, LOS ANGELES,34.050468,-118.08193
SUPERIOR GROCERS #129,W 133 AVENUE 45,0,LOS ANGELES,CA,90065, LOS ANGELES,34.097132,-118.20784
EUCLID MARKET, 545 EUCLID AVE,0,LOS ANGELES,CA,90063, LOS ANGELES,34.034122,-118.20515
TALA'S MARKET,E 1865 97TH ST,0,LOS ANGELES,CA,90002, LOS ANGELES,33.948341,-118.2391
WINCO FOODS #35,W 740 AVENUE K-4,0,LANCASTER,CA,93534, LOS ANGELES,34.671976,-118.14555
EL CANEY MARKET, 4600 MAPLEWOOD AVE,0,LOS ANGELES,CA,90004, LOS ANGELES,34.079708,-118.30475
O.K. MARKET,N 627 MOTT ST,0,LOS ANGELES,CA,90033, LOS ANGELES,34.048489,-118.20194
PCH POULTRY & MARKET, 1701 MAGNOLIA AVE,0,LONG BEACH,CA,90813, LOS ANGELES,33.788056,-118.19831
CARNICERIA VALLARTA #2, 13715 VANOWEN ST,0,VAN NUYS,CA,91405, LOS ANGELES,34.194305,-118.43195
VALLARTA SUPERMARKET #19, 23449 LYONS AVE,0,VALENCIA,CA,91355, LOS ANGELES,34.379638,-118.54405
CENTRO LATINO MARKET,S 4512 HOOVER ST,0,LOS ANGELES,CA,90037, LOS ANGELES,34.002172,-118.28688
CORONADO MARKET,W 2435 TEMPLE ST,0,LOS ANGELES,CA,90026, LOS ANGELES,34.071915,-118.27306
VALUE + EXPRESS MARKET,E 4203 CESAR E. CHAVEZ AVE,0,LOS ANGELES,CA,90063, LOS ANGELES,34.040558,-118.17569
VALUE + EXPRESS MARKET,S 4157 FIGUEROA ST,0,LOS ANGELES,CA,90037, LOS ANGELES,34.007907,-118.28272
WAL-MART SUPERCENTER #1563, 44665 VALLEY CENTRAL WAY,0,LANCASTER,CA,93536, LOS ANGELES,34.693616,-118.17326
VALLARTA SUPERMARKET #24, 19725 VANOWEN ST,0,WINNETKA,CA,91306, LOS ANGELES,34.19382,-118.56323
EL RANCHITO MEAT MARKET, 3293 FLETCHER DR,0,LOS ANGELES,CA,90065, LOS ANGELES,34.117955,-118.24138
HOOVER RANCH MARKET,S 2301 HOOVER ST,0,LOS ANGELES,CA,90007, LOS ANGELES,34.034978,-118.28436
CARDENAS MARKET #20,W 1645 HOLT AVE,0,POMONA,CA,91768, LOS ANGELES,34.062491,-117.77828
RALPHS #022,W 645 9TH ST,0,LOS ANGELES,CA,90015, LOS ANGELES,34.045802,-118.26057
PICO RANCH MARKET,W 5151 PICO BLVD, UNIT D,LOS ANGELES,CA,90019, LOS ANGELES,34.048468,-118.35067
MEATLAND CARNICERIA,N 112 GAGE AVE,0,LOS ANGELES,CA,90063, LOS ANGELES,34.036357,-118.18416
SUPER KING MARKET #2,N 2716 SAN FERNANDO RD,0,LOS ANGELES,CA,90065, LOS ANGELES,34.109646,-118.24304
EL RANCHITO MARKET,W 146 10TH ST,0,LONG BEACH,CA,90813, LOS ANGELES,33.778971,-118.19377
J & A NUTRITION,E 2031 10TH ST,0,LONG BEACH,CA,90804, LOS ANGELES,33.779138,-118.16691
B & A MARKET,W 1209 VENICE BLVD,0,LOS ANGELES,CA,90006, LOS ANGELES,34.044228,-118.29322
SUPER MERCADO LATINO,W 1049 MARTIN L. KING JR BLVD,0,LOS ANGELES,CA,90037, LOS ANGELES,34.010862,-118.29333
SUPERIOR GROCERS #104,N 1858 DURFEE AVE,0,SOUTH EL MONTE,CA,91733, LOS ANGELES,34.043491,-118.03091
WASHINGTON SQUARE MARKET,W 4040 WASHINGTON BLVD,0,LOS ANGELES,CA,90018, LOS ANGELES,34.039874,-118.32714
FARMERS MARKET,E 7516 ROSECRANS AVE,0,PARAMOUNT,CA,90723, LOS ANGELES,33.903608,-118.16778
FIESTA RANCHO MARKET,N 2116 SANTA FE AVE,0,COMPTON,CA,90222, LOS ANGELES,33.911604,-118.21664
MEGA DISCOUNT,E 1208 COMPTON BLVD,0,COMPTON,CA,90221, LOS ANGELES,33.895714,-118.21003
SUPERIOR GROCERS #131, 9100 WHITTIER BLVD,0,PICO RIVERA,CA,90660, LOS ANGELES,33.999718,-118.08284
BABY'S WORLD NUTRITION #2,S 804 ALVARADO ST,0,LOS ANGELES,CA,90057, LOS ANGELES,34.054805,-118.27786
ONE DOLLAR WAREHOUSE, 2299 PACIFIC AVE,0,LONG BEACH,CA,90806, LOS ANGELES,33.798687,-118.19399
ABC BABY NUTRITION,N 550 SAN ANTONIO AVE, STE F,POMONA,CA,91767, LOS ANGELES,34.063575,-117.73663
LATINA MARKET,E 1503 66TH ST,0,LOS ANGELES,CA,90001, LOS ANGELES,33.980023,-118.24725
DURON'S MARKET,N 1610 WILLOWBROOK AVE,0,COMPTON,CA,90222, LOS ANGELES,33.907007,-118.22599
VONS #2832, 1600 FOOTHILL BLVD,0,LA VERNE,CA,91750, LOS ANGELES,34.115048,-117.77384
GROWING HEALTHY, 5160 HOLLYWOOD BLVD,0,LOS ANGELES,CA,90027, LOS ANGELES,34.101748,-118.30239
WAL-MART SUPERCENTER #3522, 3250 BIG DALTON AVE,0,BALDWIN PARK,CA,91706, LOS ANGELES,34.071087,-117.96349
WAL-MART SUPERCENTER #2950, 37140 47TH ST E,0,PALMDALE,CA,93552, LOS ANGELES,34.556642,-118.04301
WAL-MART SUPERCENTER #2951,E 1731 AVENUE J,0,LANCASTER,CA,93535, LOS ANGELES,34.691522,-118.09774
VALLARTA SUPERMARKET #6, 16107 VICTORY BLVD,0,VAN NUYS,CA,91406, LOS ANGELES,34.186975,-118.48477
VALLARTA SUPERMARKET #14,W 1801 AVENUE I,0,LANCASTER,CA,93534, LOS ANGELES,34.704736,-118.16365
PAVILIONS #2813, 29211 HEATHERCLIFF RD,0,MALIBU,CA,90265, LOS ANGELES,34.02079,-118.81015
KING'S FOODTOWN SUPERMARKET,W 1019 MARTIN L. KING JR. BLVD,0,LOS ANGELES,CA,90037, LOS ANGELES,34.010491,-118.29317
EL SUPER #09,E 1575 HOLT AVE,0,POMONA,CA,91767, LOS ANGELES,34.064918,-117.7198
VALLARTA SUPERMARKET #27,E 815 AVENUE K,0,LANCASTER,CA,93535, LOS ANGELES,34.675027,-118.11447
SAN FERNANDO VALLEY PRODUCE &, 18345 VANOWEN ST,0,RESEDA,CA,91335, LOS ANGELES,34.194574,-118.53321
RALPHS #727, 25930 MCBEAN PKWY,0,VALENCIA,CA,91355, LOS ANGELES,34.403852,-118.55244
FIESTA PLAZA,N 1161 MACLAY AVE,0,SAN FERNANDO,CA,91340, LOS ANGELES,34.295668,-118.42438
PBI MINI MARKET, 7910 ATLANTIC AVE, STE A,CUDAHY,CA,90201, LOS ANGELES,33.962501,-118.18557
EL SUPER #12, 9710 WOODMAN AVE,0,ARLETA,CA,91331, LOS ANGELES,34.246779,-118.44796
EL SUPER #13,E 1301 GAGE AVE,0,LOS ANGELES,CA,90001, LOS ANGELES,33.982618,-118.24989
EL SUPER #14,W 960 ARROW HWY,0,COVINA,CA,91722, LOS ANGELES,34.106001,-117.90883
EL SUPER #15,W 3321 CENTURY BLVD,0,INGLEWOOD,CA,90303, LOS ANGELES,33.946709,-118.33039
EL SUPER #16, 10531 CARMENITA RD,0,SANTA FE SPRINGS,CA,90670, LOS ANGELES,33.939778,-118.04658
EL SUPER #17,W 1100 SLAUSON AVE,0,LOS ANGELES,CA,90044, LOS ANGELES,33.988719,-118.29358
SAN ANTONIO MEAT MARKET,S 501 FETTERLY AVE,0,LOS ANGELES,CA,90022, LOS ANGELES,34.028584,-118.16269
LOS AMIGOS MARKET, 4907 MAPLEWOOD AVE,0,LOS ANGELES,CA,90004, LOS ANGELES,34.080535,-118.30953
NATURE'S HARVEST MARKET, 5636 HOLLYWOOD BLVD,0,LOS ANGELES,CA,90028, LOS ANGELES,34.10171,-118.31285
YUCA'S MARKET, 11300 VANOWEN ST,0,NORTH HOLLYWOOD,CA,91605, LOS ANGELES,34.19362,-118.37718
SUPER KING MARKET #3, 2260 LINCOLN AVE,0,ALTADENA,CA,91001, LOS ANGELES,34.18441,-118.1593
QIK MARKET, 7601 VINELAND AVE,0,SUN VALLEY,CA,91352, LOS ANGELES,34.208743,-118.3708
LA MICHOACANA MEAT MARKET,E 4045 52ND ST,0,MAYWOOD,CA,90270, LOS ANGELES,33.994821,-118.19172
JAY'S MARKET,W 4000 PICO BLVD,0,LOS ANGELES,CA,90019, LOS ANGELES,34.04661,-118.32361
LA CHULADA MARKET,E 851 COMPTON BLVD,0,RANCHO DOMINGUEZ,CA,90220, LOS ANGELES,33.895316,-118.26118
GREEN RANCHO MARKET,N 837 WILMINGTON BLVD,0,WILMINGTON,CA,90744, LOS ANGELES,33.780499,-118.27475
SMART & FINAL #308,W 160 WILLOW ST,0,POMONA,CA,91768, LOS ANGELES,34.078583,-117.75382
SMART & FINAL #309,E 11460 WASHINGTON BLVD,0,WHITTIER,CA,90606, LOS ANGELES,33.971322,-118.0689
SMART & FINAL #310, 1216 COMPTON AVE,0,LOS ANGELES,CA,90021, LOS ANGELES,34.027644,-118.24177
SMART & FINAL #311, 15930 BELLFLOWER BLVD,0,BELLFLOWER,CA,90706, LOS ANGELES,33.888402,-118.12438
SMART & FINAL #319,E 5029 FLORENCE AVE,0,BELL,CA,90201, LOS ANGELES,33.971926,-118.2027
SMART & FINAL #325, 10935 FIRESTONE BLVD,0,NORWALK,CA,90650, LOS ANGELES,33.923293,-118.10006
SMART & FINAL #337,S 8137 VERMONT AVE,0,LOS ANGELES,CA,90044, LOS ANGELES,33.964697,-118.29217
SMART & FINAL #341,E 1125 EL SEGUNDO BLVD,0,LOS ANGELES,CA,90059, LOS ANGELES,33.916363,-118.25502
SMART & FINAL #345,E 2308 4TH ST,0,LOS ANGELES,CA,90033, LOS ANGELES,34.040663,-118.21299
SMART & FINAL #349, 7815 VAN NUYS BLVD,0,VAN NUYS,CA,91402, LOS ANGELES,34.212703,-118.44986
SMART & FINAL #363,N 939 WESTERN AVE,0,LOS ANGELES,CA,90029, LOS ANGELES,34.087891,-118.30963
SMART & FINAL #364,W 2949 PICO BLVD,0,LOS ANGELES,CA,90006, LOS ANGELES,34.047565,-118.30479
SMART & FINAL #366,S 10100 CRENSHAW BLVD,0,INGLEWOOD,CA,90303, LOS ANGELES,33.938446,-118.32654
SMART & FINAL #369, 20410 SUSANA RD,0,CARSON,CA,90810, LOS ANGELES,33.846469,-118.20679
SMART & FINAL #372, 10893 SAN FERNANDO RD,0,PACOIMA,CA,91331, LOS ANGELES,34.267883,-118.42462
SMART & FINAL #373, 11110 RAMONA BLVD,0,EL MONTE,CA,91731, LOS ANGELES,34.07286,-118.03154
SMART & FINAL #413, 6060 FIGUEROA ST,0,HIGHLAND PARK,CA,90042, LOS ANGELES,34.111786,-118.18834
SMART & FINAL #440, 1320 ATLANTIC AVE,0,LONG BEACH,CA,90813, LOS ANGELES,33.783155,-118.18445
SMART & FINAL #456,S 3607 VERMONT AVE,0,LOS ANGELES,CA,90007, LOS ANGELES,34.022657,-118.29224
SMART & FINAL #457, 1575 CENTINELA AVE,0,INGLEWOOD,CA,90302, LOS ANGELES,33.976629,-118.3663
SMART & FINAL #459, 2720 BEVERLY BLVD,0,LOS ANGELES,CA,90057, LOS ANGELES,34.070287,-118.27865
SMART & FINAL #470, 2929 CRENSHAW BLVD,0,LOS ANGELES,CA,90016, LOS ANGELES,34.028185,-118.33546
SMART & FINAL #481, 3123 BALDWIN PARK BLVD,0,BALDWIN PARK,CA,91706, LOS ANGELES,34.070313,-117.97948
SMART & FINAL #487,W 1550 REDONDO BEACH BLVD,0,GARDENA,CA,90247, LOS ANGELES,33.889783,-118.30357
SMART & FINAL #522,N 855 WILCOX AVE,0,MONTEBELLO,CA,90640, LOS ANGELES,34.031436,-118.1261
B & N MARKET, 4560 DURFEE AVE,0,PICO RIVERA,CA,90660, LOS ANGELES,34.006473,-118.07683
SABREENA NUTRITION,E 1441 7TH ST, STE C,LONG BEACH,CA,90813, LOS ANGELES,33.77564,-118.17334
FOUNTAIN MINI MARKET, 4878 FOUNTAIN AVE,0,LOS ANGELES,CA,90029, LOS ANGELES,34.095394,-118.29576
NORTHGATE MARKET #04,E 9101 TELEGRAPH RD,0,PICO RIVERA,CA,90660, LOS ANGELES,33.959884,-118.10847
NORTHGATE MARKET #06,N 831 HACIENDA BLVD,0,LA PUENTE,CA,91744, LOS ANGELES,34.034357,-117.95031
NORTHGATE MARKET #10, 6801 ATLANTIC AVE,0,BELL,CA,90201, LOS ANGELES,33.974263,-118.18823
NORTHGATE MARKET #12, 2120 PACIFIC AVE,0,LONG BEACH,CA,90806, LOS ANGELES,33.795914,-118.19313
NORTHGATE MARKET #17, 16259 PARAMOUNT BLVD,0,PARAMOUNT,CA,90723, LOS ANGELES,33.88663,-118.16089
NORTHGATE MARKET #20, 3828 PECK RD,0,EL MONTE,CA,91732, LOS ANGELES,34.075062,-118.02132
NORTHGATE MARKET #22,W 1320 FRANCISQUITO AVE,0,WEST COVINA,CA,91790, LOS ANGELES,34.052631,-117.95443
NORTHGATE MARKET #24,E 11660 FIRESTONE BLVD,0,NORWALK,CA,90650, LOS ANGELES,33.913162,-118.08416
NORTHGATE MARKET #25,W 3930 ROSECRANS AVE,0,HAWTHORNE,CA,90250, LOS ANGELES,33.900582,-118.34349
SMART & FINAL #322,S 332 PACIFIC COAST HWY,0,REDONDO BEACH,CA,90277, LOS ANGELES,33.836947,-118.38492
SMART & FINAL #332, 604 LINCOLN BLVD,0,VENICE,CA,90291, LOS ANGELES,33.999888,-118.46484
SMART & FINAL #477, 16847 VENTURA BLVD,0,ENCINO,CA,91316, LOS ANGELES,34.159302,-118.5013
SMART & FINAL #324, 22631 VENTURA BLVD,0,WOODLAND HILLS,CA,91364, LOS ANGELES,34.166892,-118.62058
SMART & FINAL #528, 10340 MASON AVE,0,CHATSWORTH,CA,91311, LOS ANGELES,34.258499,-118.57889
SMART & FINAL #414, 6555 FOOTHILL BLVD,0,TUJUNGA,CA,91042, LOS ANGELES,34.245979,-118.27508
SMART & FINAL #460, 16210 DEVONSHIRE ST,0,GRANADA HILLS,CA,91344, LOS ANGELES,34.257414,-118.48559
SMART & FINAL #483, 28207 NEWHALL RANCH RD,0,VALENCIA,CA,91354, LOS ANGELES,34.441337,-118.57233
SMART & FINAL #468, 23640 LYONS AVE, STE B,SANTA CLARITA,CA,91321, LOS ANGELES,34.377963,-118.54732
SMART & FINAL #304,N 210 VERDUGO RD,0,GLENDALE,CA,91206, LOS ANGELES,34.148519,-118.23566
HOLMES MEAT MARKET, 6525 HOLMES AVE,0,LOS ANGELES,CA,90001, LOS ANGELES,33.979742,-118.2416
SMART & FINAL #472, 18204 GALE AVE,0,CITY OF INDUSTRY,CA,91748, LOS ANGELES,33.994957,-117.90754
SMART & FINAL #314,E 266 HUNTINGTON DR,0,MONROVIA,CA,91016, LOS ANGELES,34.140202,-117.99583
SMART & FINAL #485,E 3299 COLORADO BLVD,0,PASADENA,CA,91107, LOS ANGELES,34.146754,-118.0833
SMART & FINAL #370,N 401 FAIR OAKS AVE,0,PASADENA,CA,91103, LOS ANGELES,34.152637,-118.15143
SMART & FINAL #321,E 725 MAIN ST,0,ALHAMBRA,CA,91801, LOS ANGELES,34.098581,-118.11969
SMART & FINAL #367,N 114 AZUSA AVE,0,COVINA,CA,91722, LOS ANGELES,34.08683,-117.90659
SMART & FINAL #395,W 11221 PICO BLVD,0,LOS ANGELES,CA,90064, LOS ANGELES,34.035609,-118.43783
SMART & FINAL #478,S 1835 LA CIENEGA BLVD,0,LOS ANGELES,CA,90035, LOS ANGELES,34.043562,-118.3766
SMART & FINAL #374,N 6601 LAUREL CANYON BLVD,0,NORTH HOLLYWOOD,CA,91606, LOS ANGELES,34.190304,-118.39651
SMART & FINAL #474, 1041 FULLER AVE,0,WEST HOLLYWOOD,CA,90046, LOS ANGELES,34.090057,-118.34983
SMART & FINAL #306,S 28500 WESTERN AVE,0,RANCHO PALOS VERDES,CA,90275, LOS ANGELES,33.760863,-118.31163
SMART & FINAL #348,N 21600 VERMONT AVE,0,TORRANCE,CA,90502, LOS ANGELES,33.833249,-118.29028
SMART & FINAL #458, 2775 PACIFIC COAST HWY,0,TORRANCE,CA,90505, LOS ANGELES,33.793492,-118.33511
SMART & FINAL #301, 1755 XIMENO AVE,0,LONG BEACH,CA,90815, LOS ANGELES,33.789046,-118.1394
SMART & FINAL #529, 15205 HAWTHORNE BLVD,0,LAWNDALE,CA,90260, LOS ANGELES,33.893221,-118.35333
SMART & FINAL #371, 5555 WILSHIRE BLVD,0,LOS ANGELES,CA,90036, LOS ANGELES,34.062699,-118.34973
SMART & FINAL #315, 12210 SANTA MONICA BLVD,0,WEST LOS ANGELES,CA,90025, LOS ANGELES,34.040003,-118.46464
SMART & FINAL #330, 10113 VENICE BLVD,0,LOS ANGELES,CA,90034, LOS ANGELES,34.022683,-118.40066
NORTHGATE MARKET #23,W 307 PACIFIC COAST HWY,0,WILMINGTON,CA,90744, LOS ANGELES,33.792257,-118.26644
SUPER BARGAIN MARKET,S 10900 MAIN ST,0,LOS ANGELES,CA,90061, LOS ANGELES,33.937256,-118.27355
MARINA TRES MARKET, 501 ECHANDIA ST,0,LOS ANGELES,CA,90033, LOS ANGELES,34.052062,-118.21886
LA BODEGA #3,S 2715 WESTERN AVE, STE D,LOS ANGELES,CA,90018, LOS ANGELES,34.030405,-118.30929
LA CACHANILLA,W 615 MISSION BLVD,0,POMONA,CA,91766, LOS ANGELES,34.055242,-117.75596
SUPER VALUE EXPRESS MARKET, 6118 WHITTIER BLVD,0,LOS ANGELES,CA,90022, LOS ANGELES,34.016651,-118.13949
VALUE + EXPRESS MARKET #1,W 945 PACIFIC COAST HWY,0,WILMINGTON,CA,90744, LOS ANGELES,33.790557,-118.27453
VALUE + EXPRESS MARKET #2,S 1110 PACIFIC AVE,0,SAN PEDRO,CA,90731, LOS ANGELES,33.734376,-118.2879
C & J MINI MART, 11228 WILMINGTON AVE,0,LOS ANGELES,CA,90059, LOS ANGELES,33.932622,-118.23875
SC LA 99 CENT MARKET, 3110-3118 MAPLE AVE,0,LOS ANGELES,CA,90011, LOS ANGELES,34.023854,-118.26516
LA FLOR DE MICHOACAN BAKERY, 7045 SOMERSET BLVD,0,PARAMOUNT,CA,90723, LOS ANGELES,33.896603,-118.17597
99 CENT MARKET MATAMOROS, 5859 COMPTON AVE,0,LOS ANGELES,CA,90001, LOS ANGELES,33.988356,-118.24823
LA FORTUNA MEAT MARKET,S 3200 CENTRAL AVE,0,LOS ANGELES,CA,90011, LOS ANGELES,34.014381,-118.25619
MERCADO MEXICO,E 3554 WHITTIER BLVD,0,WHITTIER,CA,90023, LOS ANGELES,34.02568,-118.19711
NORWOOD MARKET, 5070 HOLLYWOOD BLVD,0,LOS ANGELES,CA,90027, LOS ANGELES,34.10157,-118.30026
CIRCLE H MARKETS,N 3131 SAN FERNANDO RD,0,LOS ANGELES,CA,90065, LOS ANGELES,34.115644,-118.2466
CIRCLE H MARKETS,W 2511 SUNSET BLVD,0,LOS ANGELES,CA,90026, LOS ANGELES,34.079985,-118.26927
EL RANCHO MARKET, 960 VINE ST,0,LOS ANGELES,CA,90038, LOS ANGELES,34.088515,-118.32662
CANDELARIO'S MARKET,E 580 LA VERNE AVE,0,POMONA,CA,91767, LOS ANGELES,34.080204,-117.74172
VILLA GUERRERO MARKET,W 401 ROSECRANS AVE,0,COMPTON,CA,90222, LOS ANGELES,33.903545,-118.2302
THE NEW COUNTRY STORE,E 458 DUARTE RD,0,MONROVIA,CA,91016, LOS ANGELES,34.132204,-117.99294
GAGE STORE, 3663 GAGE AVE,0,BELL,CA,90201, LOS ANGELES,33.979673,-118.1997
EL MERCADO DEL PUEBLO, 12760 RAMONA BLVD,0,BALDWIN PARK,CA,91706, LOS ANGELES,34.078328,-117.99364
TARGET STORE T-2350,E 38019 47TH ST,0,PALMDALE,CA,93552, LOS ANGELES,34.572999,-118.04498
AMIGO'S MARKET,E 1100 10TH ST,0,LONG BEACH,CA,90813, LOS ANGELES,33.778754,-118.17884
DERIAN FOODS,W 121 WHITTIER BLVD,0,MONTEBELLO,CA,90640, LOS ANGELES,34.008623,-118.10142
DURANGO PRODUCE MARKET, 5419 VENICE BLVD,0,LOS ANGELES,CA,90019, LOS ANGELES,34.044263,-118.35754
PAVILIONS #2739, 8969 SANTA MONICA BLVD,0,WEST HOLLYWOOD,CA,90069, LOS ANGELES,34.083696,-118.3868
SUPERIOR GROCERS #135,S 2000 CENTRAL AVE,0,LOS ANGELES,CA,90011, LOS ANGELES,34.022963,-118.25143
EL SUPER #21, 14601 LAKEWOOD BLVD, STE B,PARAMOUNT,CA,90723, LOS ANGELES,33.900673,-118.1447
BAJA RANCH MARKET #3,S 425 CITRUS AVE,0,COVINA,CA,91723, LOS ANGELES,34.081631,-117.89012
JIMENEZ MARKET, 1670 INDIAN HILL BLVD,0,POMONA,CA,91762, LOS ANGELES,34.075479,-117.71923
SMART & FINAL #428,W 1855 GLENOAKS BLVD,0,GLENDALE,CA,91201, LOS ANGELES,34.17466,-118.2923
SMART & FINAL #511, 2511 DALY ST,0,LINCOLN HEIGHTS,CA,90031, LOS ANGELES,34.075464,-118.21655
SUPER A FOODS #01, 5595 ROSEMEAD BLVD,0,TEMPLE CITY,CA,91780, LOS ANGELES,34.101226,-118.07502
MOMMY'S NUTRITIONAL CENTER #13,W 1644 CARSON ST, STE D,TORRANCE,CA,90501, LOS ANGELES,33.831001,-118.30777
MOMMY'S NUTRITIONAL CENTER #11, 4455 117TH ST, STE 102,HAWTHORNE,CA,90250, LOS ANGELES,33.92866,-118.35394
MOMMY'S NUTRITIONAL CENTER #12,S 271 & 273 ATLANTIC BLVD, STE B & A,LOS ANGELES,CA,90022, LOS ANGELES,34.03291,-118.15411
SMART & FINAL #471,W 3708 BURBANK BLVD,0,BURBANK,CA,91505, LOS ANGELES,34.174216,-118.35066
SMART & FINAL #512, 7224 MASON AVE,0,WINNETKA,CA,91306, LOS ANGELES,34.202008,-118.57889
DON PANCHITO MINI MARKET,S 6015 AVALON BLVD,0,LOS ANGELES,CA,90003, LOS ANGELES,33.985052,-118.26517
TIENDA LATINA MARKET,S 10333 INGLEWOOD BLVD,0,LENNOX,CA,90304, LOS ANGELES,33.942399,-118.36134
DOLLAR DISCOUNT, 5464 SANTA MONICA BLVD,0,LOS ANGELES,CA,90029, LOS ANGELES,34.090617,-118.30835
GOLD STRIKE MARKET,N 412 PARK AVE,0,POMONA,CA,91768, LOS ANGELES,34.061615,-117.75465
ARLINGTON COMMUNITY MARKET, 3798 ARLINGTON AVE,0,LOS ANGELES,CA,90018, LOS ANGELES,34.018506,-118.31772
B & B NUTRITION, 7008 SANTA FE AVE,0,HUNTINGTON PARK,CA,90255, LOS ANGELES,33.975764,-118.23023
RANCHO LATINO SUPERMARKET, 3474 TWEEDY BLVD,0,SOUTH GATE,CA,90280, LOS ANGELES,33.944215,-118.20788
MICHOACAN MEAT MARKET, 5137 COMPTON AVE,0,LOS ANGELES,CA,90011, LOS ANGELES,33.995918,-118.24799
VILLALOBOS MEAT MARKET, 5244 SANTA MONICA BLVD,0,LOS ANGELES,CA,90029, LOS ANGELES,34.090796,-118.30473
TARGET STORE T-1306,S 3535 LA CIENEGA BLVD,0,LOS ANGELES,CA,90016, LOS ANGELES,34.023407,-118.37379
TARGET STORE T-2632, 6000 SEPULVEDA BLVD,0,CULVER CITY,CA,90230, LOS ANGELES,33.985362,-118.39568
TARGET STORE T-1425, 8800 WHITTIER BLVD,0,PICO RIVERA,CA,90660, LOS ANGELES,34.001059,-118.08447
TARGET STORE T-0290, 2169 REDONDO BEACH BLVD,0,GARDENA,CA,90247, LOS ANGELES,33.886983,-118.3161
TARGET STORE T-1362,W 1800 EMPIRE AVE,0,BURBANK,CA,91504, LOS ANGELES,34.191807,-118.32985
AZTECA 99 CENT PLUS,E 1662 1/2 41ST ST,0,LOS ANGELES,CA,90011, LOS ANGELES,34.008176,-118.244
LA FIESTA MARKET,S 5957 SAN PEDRO ST,0,LOS ANGELES,CA,90003, LOS ANGELES,33.985866,-118.26973
VALUE + EXPRESS MARKET, 2195 PACIFIC AVE,0,LONG BEACH,CA,90806, LOS ANGELES,33.797045,-118.19378
GREEN DAIRY,S 6400 WESTERN AVE,0,LOS ANGELES,CA,90047, LOS ANGELES,33.981148,-118.30846
SANTANA MARKET,S 7724 MAIN ST,0,LOS ANGELES,CA,90003, LOS ANGELES,33.969039,-118.27366
PALMS SUPERMARKET, 3568 MOTOR AVE,0,LOS ANGELES,CA,90034, LOS ANGELES,34.025171,-118.40723
NORTHGATE MARKET #33,W 2323 OLYMPIC BLVD,0,LOS ANGELES,CA,90006, LOS ANGELES,34.052802,-118.28269
AMIGO'S MARKET,W 2609 TEMPLE ST,0,LOS ANGELES,CA,90026, LOS ANGELES,34.072657,-118.2752
LA BLANQUITA SUPERMARKET,E 13810 LOS ANGELES ST,0,BALDWIN PARK,CA,91706, LOS ANGELES,34.092151,-117.97316
VERNON COMMUNITY MARKET,S 4375 VAN NESS AVE,0,LOS ANGELES,CA,90062, LOS ANGELES,34.004035,-118.31711
OK MARKET & PERFUME OIL,S 1141 MYRTLE AVE,0,INGLEWOOD,CA,90301, LOS ANGELES,33.947422,-118.34936
TARGET STORE T-2424, 6750 CHERRY AVE,0,LONG BEACH,CA,90805, LOS ANGELES,33.877324,-118.16618
SUPER FARMS MARKET,W 1500 PICO BLVD,0,LOS ANGELES,CA,90015, LOS ANGELES,34.043553,-118.27523
TARGET STORE T-2280,W 2700 120TH ST,0,HAWTHORNE,CA,90250, LOS ANGELES,33.922448,-118.32149
TARGET STORE T-0199,N 1200 SEPULVEDA BLVD,0,MANHATTAN BEACH,CA,90266, LOS ANGELES,33.888454,-118.39434
TARGET STORE T-2328,W 651 SEPULVEDA BLVD,0,CARSON,CA,90745, LOS ANGELES,33.809982,-118.28618
TARGET STORE T-2470,N 1701 GAFFEY ST,0,SAN PEDRO,CA,90731, LOS ANGELES,33.760443,-118.29393
NEIGHBOR MARKET,E 2430 ALONDRA BLVD,0,COMPTON,CA,90221, LOS ANGELES,33.888748,-118.19702
TED'S QUALITY MARKET, 2514 DURFEE AVE,0,EL MONTE,CA,91732, LOS ANGELES,34.052042,-118.02136
TARGET STORE T-1408, 2626 COLORADO BLVD,0,LOS ANGELES,CA,90041, LOS ANGELES,34.141326,-118.22391
LA SIMPATIA MEAT MARKET, 1312 DUARTE RD,0,DUARTE,CA,91010, LOS ANGELES,34.132202,-117.97698
LA ESTRELLA MEAT MARKET, 7825 STATE ST,0,HUNTINGTON PARK,CA,90255, LOS ANGELES,33.966396,-118.21045
GARNI FOOD MARKET, 7073 FOOTHILL BLVD,0,TUJUNGA,CA,91042, LOS ANGELES,34.248006,-118.28574
ARIEL GLATT KOSHER MARKET,N 304 LA BREA AVE,0,LOS ANGELES,CA,90036, LOS ANGELES,34.076784,-118.34404
LA CAMPANITA MEAT MARKET,W 1653 WASHINGTON BLVD,0,LOS ANGELES,CA,90007, LOS ANGELES,34.039993,-118.29328
DAILY BREAD NUTRITION,E 2744 10TH ST,0,LONG BEACH,CA,90804, LOS ANGELES,33.778966,-118.15934
MOM AND BABY NUTRITION STORE,E 710 GARVEY AVE, STE A,MONTEREY PARK,CA,91755, LOS ANGELES,34.062261,-118.11261
VALLEY NUTRITION, 13076 VAN NUYS BLVD,0,PACOIMA,CA,91331, LOS ANGELES,34.269085,-118.41798
MOMMY'S NUTRITIONAL CENTER #14, 700 FAIRPLEX DR,0,POMONA,CA,91768, LOS ANGELES,34.06253,-117.78755
OCCIDENTAL LIQUOR, 2755 BEVERLY BLVD,0,LOS ANGELES,CA,90057, LOS ANGELES,34.070446,-118.27902
WAL-MART SUPERCENTER #2292,N 1275 AZUSA AVE,0,COVINA,CA,91722, LOS ANGELES,34.103586,-117.9094
WAL-MART SUPERCENTER #2251, 17150 GALE AVE,0,CITY OF INDUSTRY,CA,91745, LOS ANGELES,33.998901,-117.9321
WAL-MART SUPERCENTER #2948, 13310 TELEGRAPH RD,0,SANTA FE SPRINGS,CA,90670, LOS ANGELES,33.940615,-118.04971
WAL-MART SUPERCENTER #2609, 2770 CARSON ST,0,LAKEWOOD,CA,90712, LOS ANGELES,33.830978,-118.15875
WAL-MART SUPERCENTER #3477, 7250 CARSON BLVD,0,LONG BEACH,CA,90808, LOS ANGELES,33.829601,-118.09127
WAL-MART SUPERCENTER #5162, 27931 KELLY JOHNSON PKWY,0,SANTA CLARITA,CA,91355, LOS ANGELES,34.444142,-118.57707
WAL-MART SUPERCENTER #2526, 19821 RINALDI ST,0,PORTER RANCH,CA,91326, LOS ANGELES,34.276916,-118.56691
1$ MART,E 1931 7TH ST,0,LONG BEACH,CA,90813, LOS ANGELES,33.775341,-118.16797
JR MARKET DISCOUNT,S 8322 AVALON BLVD,0,LOS ANGELES,CA,90003, LOS ANGELES,33.963534,-118.26512
TARGET STORE T-1884, 7100 SANTA MONICA BLVD,0,WEST HOLLYWOOD,CA,90046, LOS ANGELES,34.089245,-118.3441
TARGET STORE T-1980, 1601 KINGSDALE AVE,0,REDONDO BEACH,CA,90278, LOS ANGELES,33.866194,-118.35594
TARGET STORE T-0190, 5700 FIRESTONE BLVD,0,SOUTH GATE,CA,90280, LOS ANGELES,33.948309,-118.16763
TARGET STORE T-1424, 12501 IMPERIAL HWY,0,NORWALK,CA,90650, LOS ANGELES,33.918117,-118.06557
TARGET STORE T-2019, 15614 WHITTWOOD LN,0,WHITTIER,CA,90603, LOS ANGELES,33.943191,-117.99611
TARGET STORE T-0198, 10820 JEFFERSON BLVD,0,CULVER CITY,CA,90230, LOS ANGELES,34.001218,-118.39486
MERCADO LA CACHANILLA,N 246 AZUSA AVE,0,AZUSA,CA,91702, LOS ANGELES,34.126007,-117.90721
RODRIGUEZ MINI MKT & 99 CENTS,S 8252 MAIN ST,0,LOS ANGELES,CA,90003, LOS ANGELES,33.964442,-118.27388
ALONDRA MINI MARKET,S 3765 WESTERN AVE,0,LOS ANGELES,CA,90018, LOS ANGELES,34.018812,-118.30912
Q & M MARKET,E 853 91ST ST,0,LOS ANGELES,CA,90002, LOS ANGELES,33.95404,-118.25891
C & M MARKET,N 601 BREED ST,0,LOS ANGELES,CA,90033, LOS ANGELES,34.05149,-118.20683
T & J MARKET,W 1437 11TH ST,0,LOS ANGELES,CA,90015, LOS ANGELES,34.046561,-118.27254
EL MIGUELENO MINI MARKET,W 2688 PICO BLVD,0,LOS ANGELES,CA,90006, LOS ANGELES,34.047226,-118.29717
VICTORIA MARKET,S 11149 VERMONT ST,0,LOS ANGELES,CA,90044, LOS ANGELES,33.933728,-118.29192
MOMMY'S NUTRITIONAL CENTER #15,N 603 AZUSA AVE,0,AZUSA,CA,91702, LOS ANGELES,34.131721,-117.90752
MOMMY'S NUTRITIONAL CENTER,E 125 ANAHEIM ST, STE F  G  H,WILMINGTON,CA,90744, LOS ANGELES,33.780034,-118.2614
FARMER MART, 8202 PEARBLOSSOM HWY,0,LITTLEROCK,CA,93543, LOS ANGELES,34.520823,-117.98331
SUNSHINE MARKET, 8801 NORWALK BLVD,0,WHITTIER,CA,90606, LOS ANGELES,33.961293,-118.07102
TARGET STORE T-0226, 2462 FOOTHILL BLVD,0,LA VERNE,CA,91750, LOS ANGELES,34.109734,-117.75968
TARGET STORE T-1028,E 2831 LAND CENTER DR,0,WEST COVINA,CA,91791, LOS ANGELES,34.073159,-117.883
TARGET STORE T-2147,S 2370 AZUSA AVE,0,WEST COVINA,CA,91792, LOS ANGELES,34.033481,-117.91137
TARGET STORE T-2307, 2195 GLENDALE GALLERIA WAY,0,GLENDALE,CA,91210, LOS ANGELES,34.144763,-118.25972
TARGET STORE T-0195,N 2270 BELLFLOWER BLVD,0,LONG BEACH,CA,90815, LOS ANGELES,33.798196,-118.12273
TARGET STORE T-2026,S 20700 AVALON BLVD,0,CARSON,CA,90746, LOS ANGELES,33.885758,-118.2652
WHITTIER RANCH MARKET,E 10722 BEVERLY BLVD, STE J,WHITTIER,CA,90601, LOS ANGELES,33.999318,-118.05652
CARNICERIA DE GUADALAJARA, 7876 SEVILLE AVE,0,HUNTINGTON PARK,CA,90255, LOS ANGELES,33.966585,-118.22239
LA VENADITA MEAT MARKET #1,S 22035 MAIN ST,0,CARSON,CA,90745, LOS ANGELES,33.826706,-118.27721
ZOHRA DISCOUNT,E 201 ARTESIA BLVD,0,LONG BEACH,CA,90805, LOS ANGELES,33.874551,-118.20034
TARGET STORE T-1411, 3600 ROSEMEAD BLVD,0,ROSEMEAD,CA,91770, LOS ANGELES,34.074606,-118.07019
TARGET STORE T-0227, 10621 CARMENITA RD,0,SANTA FE SPRINGS,CA,90670, LOS ANGELES,33.937763,-118.04825
TARGET STORE T-1309, 14920 RAYMER ST,0,VAN NUYS,CA,91405, LOS ANGELES,34.212508,-118.46121
TARGET STORE T-0228, 6635 FALLBROOK AVE,0,WEST HILLS,CA,91307, LOS ANGELES,34.19074,-118.62686
TARGET STORE T-1033, 3100 BALDWIN PARK BLVD,0,BALDWIN PARK,CA,91706, LOS ANGELES,34.069716,-117.97719
TARGET STORE T-0222, 17751 COLIMA RD,0,ROWLAND HEIGHTS,CA,91748, LOS ANGELES,33.991523,-117.91874
TODO BARATO 99 CENT PLUS,W 1901 8TH ST, STE A,LOS ANGELES,CA,90057, LOS ANGELES,34.054458,-118.27557
FRANK'S LIQUOR STORE,E 5742 BEVERLY BLVD,0,LOS ANGELES,CA,90022, LOS ANGELES,34.026404,-118.14418
DISCOUNT MARKET,W 4233 CENTURY BLVD, STE 17,INGLEWOOD,CA,90304, LOS ANGELES,33.945891,-118.34976
EL REY SUPERMARKET,S 11200 ATLANTIC BLVD,0,LYNWOOD,CA,90262, LOS ANGELES,33.925507,-118.18558
SUPERIOR GROCERS #133,E 1010 AVENUE J,0,LANCASTER,CA,90703, LOS ANGELES,34.688425,-118.11162
SUPERIOR GROCERS #137,E 38360 20TH ST,0,PALMDALE,CA,93550, LOS ANGELES,34.578738,-118.09401
LAGUNA MARKET,W 2125 6TH ST,0,LOS ANGELES,CA,90057, LOS ANGELES,34.059789,-118.27546
TARGET STORE T-0289, 20200 BLOOMFIELD AVE,0,CERRITOS,CA,90703, LOS ANGELES,33.847447,-118.06176
TARGET STORE T-1305,E 11525 SOUTH ST,0,CERRITOS,CA,90703, LOS ANGELES,33.858472,-118.08801
TARGET STORE T-1409, 141 LAKEWOOD CENTER MALL,0,LAKEWOOD,CA,90712, LOS ANGELES,33.852585,-118.14051
TARGET STORE T-1329,W 3471 CENTURY BLVD,0,INGLEWOOD,CA,90303, LOS ANGELES,33.947295,-118.33317
TARGET STORE T-0288, 20801 VENTURA BLVD,0,WOODLAND HILLS,CA,91364, LOS ANGELES,34.167235,-118.58505
TARGET STORE T-2329, 11133 BALBOA BLVD,0,GRANADA HILLS,CA,91344, LOS ANGELES,34.272647,-118.5022
TARGET STORE T-0299, 8840 CORBIN AVE,0,NORTHRIDGE,CA,91324, LOS ANGELES,34.230963,-118.56075
TARGET STORE T-2143, 6700 TOPANGA CANYON BLVD,0,CANOGA PARK,CA,91303, LOS ANGELES,34.191843,-118.60258
TARGET STORE T-1332, 3121 COLORADO BLVD,0,PASADENA,CA,91107, LOS ANGELES,34.146201,-118.0857
TARGET STORE T-0883,E 777 COLORADO BLVD,0,PASADENA,CA,91101, LOS ANGELES,34.146821,-118.13452
TARGET STORE T-0294, 11051 VICTORY BLVD,0,NORTH HOLLYWOOD,CA,91606, LOS ANGELES,34.188117,-118.37135
TARGET STORE T-0767,W 888 ARROW HWY,0,SAN DIMAS,CA,91773, LOS ANGELES,34.104392,-117.82347
TARGET STORE T-2627,N 809 AZUSA AVE,0,AZUSA,CA,91702, LOS ANGELES,34.135734,-117.90788
TARGET STORE T-0302, 1050 HUNTINGTON DR,0,DUARTE,CA,91010, LOS ANGELES,34.139751,-117.96705
EL SUPER #27, 3211 FIRESTONE BLVD,0,SOUTH GATE,CA,90280, LOS ANGELES,33.955807,-118.21268
VALLEY NUTRITION, 13627 VAN NUYS BLVD,0,PACOIMA,CA,91331, LOS ANGELES,34.260881,-118.42983
98 CENTS DISCOUNT STORE,E 1601 IMPERIAL HWY, STE 103B,LOS ANGELES,CA,90059, LOS ANGELES,33.929811,-118.24593
LONG BEACH SNACKS, 2173 SANTA FE AVE,0,LONG BEACH,CA,90810, LOS ANGELES,33.797554,-118.21552
EL GUERRERO MARKET,S 11416 VERMONT AVE,0,LOS ANGELES,CA,90044, LOS ANGELES,33.930802,-118.29158
AMAPOLA DELI & MARKET, 13733 GARFIELD AVE,0,PARAMOUNT,CA,90723, LOS ANGELES,33.912018,-118.16969
POMONA MARKET, 2747 LINCOLN PARK AVE,0,LOS ANGELES,CA,90031, LOS ANGELES,34.078546,-118.20312
DOWNEY SUPER MARKET, 13240 WOODRUFF AVE,0,DOWNEY,CA,90242, LOS ANGELES,33.91044,-118.11617
SMART NUTRITION, 5186 ATLANTIC AVE,0,LONG BEACH,CA,90805, LOS ANGELES,33.850707,-118.18483
WAL-MART #5642, 2408 LINCOLN AVE,0,ALTA DENA,CA,91001, LOS ANGELES,34.187081,-118.15908
WAL-MART #2082, 12701 TOWNE CENTER DR,0,CERRITOS,CA,90703, LOS ANGELES,33.87172,-118.06173
EXPRESS DRIVE-THRU DAIRY,N 544 MONTEBELLO BLVD,0,MONTEBELLO,CA,90640, LOS ANGELES,34.018716,-118.10516
BALBOA MARKET, 7613-7615 BALBOA BLVD,0,VAN NUYS,CA,91406, LOS ANGELES,34.187613,-118.5011
WAL-MART #5954,E 2753 EASTLAND CENTER DR,5555,WEST COVINA,CA,91791, LOS ANGELES,34.072852,-117.88649
WAL-MART #3180, 4651 FIRESTONE BLVD,0,SOUTHGATE,CA,90280, LOS ANGELES,33.95239,-118.18798
WAL-MART #5688, 6820 EASTERN AVE,0,BELL GARDENS,CA,90201, LOS ANGELES,33.970218,-118.16331
CINCO CORAS MARKET,W 225 ANAHEIM ST,0,LONG BEACH,CA,90813, LOS ANGELES,33.782987,-118.19468
DEL AMO MARKET, 20340 HARVARD BLVD,0,TORRANCE,CA,90501, LOS ANGELES,33.846213,-118.30645
LA BROADWAY MARKET,S 8408 BROADWAY ST,0,LOS ANGELES,CA,90003, LOS ANGELES,33.962899,-118.27828
WAL-MART #5603, 12270 PARAMOUNT BLVD,0,DOWNEY,CA,90242, LOS ANGELES,33.92866,-118.14849
WAL-MART #4173, 12120 CARSON ST,0,HAWAIIAN GARDENS,CA,90716, LOS ANGELES,33.830466,-118.07352
TONY'S MINI MARKET 99 CENT,E 425 VERNON AVE,0,LOS ANGELES,CA,90011, LOS ANGELES,34.003854,-118.26857
VENICE MARKET, 1339 VENICE BLVD,0,LOS ANGELES,CA,90006, LOS ANGELES,34.043538,-118.28313
MINI MARKET ON MAIN STREET,S 9103 MAIN ST,0,LOS ANGELES,CA,90003, LOS ANGELES,33.953587,-118.2742
SANTA CLARITA VLY PRODUCE, 23975 NEW HALL RANCH RD,0,VALENCIA,CA,91355, LOS ANGELES,34.430114,-118.55547
WAL-MART #5661, 14865 TELEGRAPH RD,0,LA MIRADA,CA,90638, LOS ANGELES,33.918566,-118.01371
SUPER KING MARKET #5, 19500 PLUMMER ST,0,NORTHRIDGE,CA,91324, LOS ANGELES,34.241742,-118.55908
MOM & BABY NUTRITIONAL, 11230 GARVEY AVE, STE K,EL MONTE,CA,91733, LOS ANGELES,34.062427,-118.03097
FREDDY'S MARKET, 3433 TWEEDY BLVD,0,SOUTH GATE,CA,90280, LOS ANGELES,33.944576,-118.20897
GREENFIELD DAIRY #3,S 8303 NORMANDIE AVE,0,LOS ANGELES,CA,90044, LOS ANGELES,33.963398,-118.30057
BIG SAVER FOODS #05,S 5829 COMPTON AVE,0,LOS ANGELES,CA,90001, LOS ANGELES,33.989322,-118.24774
LOS 3 GONZALEZ MARKET,S 5048 HUNTINGTON DR,0,LOS ANGELES,CA,90032, LOS ANGELES,34.08844,-118.17271
CARNICERIA EL REGALO DE MICHO,E 10624 WHITTIER BLVD,0,WHITTIER,CA,90606, LOS ANGELES,33.990629,-118.06504
EL REY MARKET,W 1471 JEFFERSON BLVD,0,LOS ANGELES,CA,90007, LOS ANGELES,34.025722,-118.29951
MARILYN'S DISCOUNT STORE,W 1727 7TH ST,0,LOS ANGELES,CA,90017, LOS ANGELES,34.054644,-118.27282
WAL-MART #5604, 14441 INGLEWOOD AVE,0,HAWTHORNE,CA,90250, LOS ANGELES,33.900269,-118.36209
LA CHIQUITA MEAT MARKET,E 3307 FLORENCE ST,0,HUNTINGTON PARK,CA,90255, LOS ANGELES,33.972417,-118.20796
WAL-MART #3086,W 701 CESAR E CHAVEZ AVE,0,LOS ANGELES,CA,90012, LOS ANGELES,34.061485,-118.24383
WAL-MART #2288, 80 RIO RANCHO RD,0,POMONA,CA,91766, LOS ANGELES,34.028384,-117.75836
SEAFOOD CITY SUPERMARKET, 16130 NORDHOFF ST,0,NORTH HILLS,CA,91343, LOS ANGELES,34.234935,-118.48394
WAL-MART STORE #5072,S 19503 NORMANDIE AVE,0,TORRANCE,CA,90501, LOS ANGELES,33.856176,-118.30008
SEAFOOD CITY SUPERMARKET, 8231 WOODMAN AVE,0,PANORAMA,CA,91402, LOS ANGELES,34.220142,-118.43304
RALPHS #222, 14049 VENTURA BLVD,0,SHERMAN OAKS,CA,91423, LOS ANGELES,34.149844,-118.43915
TARGET STORE T-0200, 3433 SEPULVEDA BLVD,0,TORRANCE,CA,90505, LOS ANGELES,33.826779,-118.34562
TARGET STORE T-2179, 747 GRAND AVE,0,DIAMOND BAR,CA,91765, LOS ANGELES,34.004595,-117.82153
TARGET STORE T-2275,S 1621 ALAMEDA ST,0,COMPTON,CA,90220, LOS ANGELES,33.879569,-118.21952
TARGET STORE T-1340, 10600 FIRESTONE BLVD,0,NORWALK,CA,90650, LOS ANGELES,33.925644,-118.10705
DANIEL MARKET, 7119 SEVILLE AVE, STE E2,HUNTINGTON PARK,CA,90255, LOS ANGELES,33.974816,-118.22285
SMART & FINAL #482, 15055 MULBERRY DR,0,WHITTIER,CA,91773, LOS ANGELES,33.935597,-118.01037
SMART & FINAL #444,W 4550 PICO BLVD, STE D303,LOS ANGELES,CA,90019, LOS ANGELES,34.048722,-118.33572
FRESCO COMMUNITY MARKET, 5914 MONTEREY RD,0,LOS ANGELES,CA,90042, LOS ANGELES,34.104868,-118.18451
SUPERIOR GROCERS #128, 14433 RAMONA BLVD,0,BALDWIN PARK,CA,91706, LOS ANGELES,34.086814,-117.95949
NORTHGATE MARKET #38,E 944 SLAUSON AVE,0,LOS ANGELES,CA,90011, LOS ANGELES,33.989242,-118.26509
EL AZTECA MARKET,S 4031 MAIN ST,0,LOS ANGELES,CA,90037, LOS ANGELES,34.010483,-118.274
SMART & FINAL #437,W 39212 10TH ST,0,PALMDALE,CA,93551, LOS ANGELES,34.595716,-118.14753
SOTO'S PRODUCE MARKET,E 4900 ROSECRANS AVE,0,COMPTON,CA,90221, LOS ANGELES,33.903335,-118.18917
CENTRAL STORE,S 10105 CENTRAL AVE,0,LOS ANGELES,CA,90002, LOS ANGELES,33.944765,-118.25446
WAL-MART STORE #1941, 1950 AUTO CENTER DR,0,GLENDORA,CA,91740, LOS ANGELES,34.1165889,-117.82619
WAL-MART STORE #5602, 20226 AVALON BLVD,0,CARSON,CA,90746, LOS ANGELES,33.848639,-118.26478
YOLY'S MARKET,S 531 BONNIE BEACH PL,0,LOS ANGELES,CA,90063, LOS ANGELES,34.028465,-118.18174
AGNES MINI MARKET, 6755 AGNES AVE,0,NORTH HOLLYWOOD,CA,91605, LOS ANGELES,34.193272,-118.39538
WAL-MART STORE #2401, 1600 MOUNTAIN AVE,0,DUARTE,CA,91010, LOS ANGELES,34.1341315,-117.98432
WAL-MART STORE #2110, 14501 LAKEWOOD BLVD,0,PARAMOUNT,CA,90723, LOS ANGELES,33.902185,-118.14524
PALOMINO MARKET,E 3085 GAGE AVE,0,HUNTINGTON PARK,CA,90255, LOS ANGELES,33.98107,-118.21281
WINCO FOODS #107,E 3400 SOUTH ST,0,LAKEWOOD,CA,90712, LOS ANGELES,33.860206,-118.15172
WAL-MART STORE #2960, 4101 CRENSHAW BLVD,0,LOS ANGELES,CA,90008, LOS ANGELES,34.008911,-118.33652
SUPER KING MARKET #4, 436 AUTO CENTER DR,0,CLAREMONT,CA,91711, LOS ANGELES,34.080794,-117.72032
VALLARTA SUPERMARKET #38, 38118 47TH ST E,0,PALMDALE,CA,93552, LOS ANGELES,34.574639,-118.04362
TARGET STORE T-0183, 9725 LAUREL CANYON BLVD,0,PACOIMA,CA,91331, LOS ANGELES,34.244835,-118.41881
TARGET STORE T-0189, 5600 WHITTIER BLVD,0,LOS ANGELES,CA,90022, LOS ANGELES,34.017961,-118.15045
NUTRITIONAL FOODS #2, 15320 PARTHENIA ST,0,NORTH HILLS,CA,91343, LOS ANGELES,34.228272,-118.46615
SUPERIOR GROCERS,E 4308 SLAUSON AVE,0,MAYWOOD,CA,90270, LOS ANGELES,33.987562,-118.18962
WAL-MART STORE #5152, 6433 FALLBROOK AVE,0,WEST HILLS,CA,91307, LOS ANGELES,34.18783,-118.62622
BABY'S NUTRITION CENTER, 7612 CALIFORNIA AVE,0,HUNTINGTON PARK,CA,90255, LOS ANGELES,33.968117,-118.20367
SMART & FINAL #598, 4237 WOODRUFF AVE,0,LAKEWOOD,CA,90713, LOS ANGELES,33.835515,-118.11649
WAL-MART STORE #2297, 25450 THE OLD RD,0,STEVENSON RANCH,CA,91381, LOS ANGELES,34.383226,-118.56975
WAL-MART STORE #5874, 22015 HAWTHORNE BLVD,0,TORRANCE,CA,90503, LOS ANGELES,33.827721,-118.35308
SUPERIOR GROCERS,N 3180 GAREY AVE,0,POMONA,CA,91767, LOS ANGELES,34.106023,-117.748
FOOD 4 LESS #762,E 3210 ANAHEIM ST,0,LONG BEACH,CA,90804, LOS ANGELES,33.782599,-118.15372
ALBERTSONS #6108,W 1735 ARTESIA BLVD,0,GARDENA,CA,90247, LOS ANGELES,33.872945,-118.30891
ALBERTSONS #6131, 3901 CRENSHAW BLVD,0,LOS ANGELES,CA,90008, LOS ANGELES,34.014134,-118.33587
ALBERTSONS #6132,E 101 WILLOW ST,0,LONG BEACH,CA,90806, LOS ANGELES,33.804443,-118.19255
ALBERTSONS #6135,E 110 CARSON ST,0,CARSON,CA,90745, LOS ANGELES,33.831569,-118.27746
ALBERTSONS #6140, 7676 FIRESTONE BLVD,0,DOWNEY,CA,90241, LOS ANGELES,33.945273,-118.14398
ALBERTSONS #6148,E 15200 ROSECRANS BLVD,0,LA MIRADA,CA,90638, LOS ANGELES,33.898633,-118.00731
ALBERTSONS #6159,E 200 SEPULVEDA BLVD,0,CARSON,CA,90745, LOS ANGELES,33.806665,-118.27277
ALBERTSONS #6181, 2469 VIA CAMPO ST,0,MONTEBELLO,CA,90640, LOS ANGELES,34.031381,-118.12262
ALBERTSONS #6191, 5015 DEL AMO BLVD,0,LAKEWOOD,CA,90712, LOS ANGELES,33.847768,-118.13483
ALBERTSONS #6301,W 23850 COPPER HILL RD,0,VALENCIA,CA,91355, LOS ANGELES,34.444969,-118.57406
ALBERTSONS #6305, 19307 SATICOY ST,0,RESEDA,CA,91335, LOS ANGELES,34.209292,-118.55433
ALBERTSONS #6322, 43543 20TH ST W,0,LANCASTER,CA,93536, LOS ANGELES,34.673973,-118.1658
ALBERTSONS #6333,N 38727 TIERRA SUBIDA AVE,0,PALMDALE,CA,93550, LOS ANGELES,34.540675,-118.14135
ALBERTSONS #6335, 26521 AGOURA RD,0,CALABASAS,CA,91302, LOS ANGELES,34.144633,-118.7001
ALBERTSONS #6359, 9022 BALBOA BLVD,0,NORTHRIDGE,CA,91325, LOS ANGELES,34.235239,-118.50256
ALBERTSONS #6360,W 27631 BOUQUET CANYON RD,0,SAUGUS,CA,91350, LOS ANGELES,34.442932,-118.51162
ALBERTSONS #6387, 2035 HILLHURST AVE,0,LOS ANGELES,CA,90027, LOS ANGELES,34.108779,-118.28796
ALBERTSONS #6543,W 2400 COMMONWEALTH AVE,0,ALHAMBRA,CA,91803, LOS ANGELES,34.08692,-118.14991
ALBERTSONS #6554,S 1235 DIAMOND BAR BLVD,0,DIAMOND BAR,CA,91765, LOS ANGELES,34.000379,-117.81255
ALBERTSONS #6557,E 2630 WORKMAN AVE,0,WEST COVINA,CA,91791, LOS ANGELES,34.075356,-117.88937
ALBERTSONS #6561,E 298 LIVE OAK AVE,0,ARCADIA,CA,91006, LOS ANGELES,34.107688,-118.02348
ALBERTSONS #6594,E 220 BONITA AVE,0,SAN DIMAS,CA,91773, LOS ANGELES,34.106033,-117.80387
ALBERTSONS #6601,W 133 ROUTE 66,0,GLENDORA,CA,91740, LOS ANGELES,34.129732,-117.86505
LUCKY #6142, 4155 TWEEDY BLVD,0,SOUTH GATE,CA,90280, LOS ANGELES,33.944232,-118.19864
SUPER KING MARKET #6, 7227 VAN NUYS BLVD,0,VAN NUYS,CA,91405, LOS ANGELES,34.202128,-118.44998
SUPERIOR GROCERS #139,S 3480 LA BREA AVE,0,LOS ANGELES,CA,90016, LOS ANGELES,34.02337,-118.35558
EL SUPER #41, 14103 RAMONA BLVD,0,BALDWIN PARK,CA,91706, LOS ANGELES,34.085076,-117.96648
EL SUPER #43, 15202 HAWTHORNE BLVD,0,LAWNDALE,CA,90260, LOS ANGELES,33.892769,-118.35174
EL SUPER #44, 10721 ATLANTIC AVE,0,LYNWOOD,CA,90262, LOS ANGELES,33.932703,-118.18279
EL SUPER #48,W 120 ANAHEIM ST,0,WILMINGTON,CA,90744, LOS ANGELES,33.779931,-118.26316
VALLARTA SUPERMARKET #43,S 757 WORKMAN ST,0,SAN FERNANDO,CA,91340, LOS ANGELES,34.282469,-118.45249
SUPERIOR GROCERS, 12721 VALLEY VIEW AVE,0,LA MIRADA,CA,90638, LOS ANGELES,33.916146,-118.03016
NORTHGATE MARKET #42,E 2038 10TH ST,0,LONG BEACH,CA,90804, LOS ANGELES,33.778293,-118.16697
SMART & FINAL #420, 18555 DEVONSHIRE ST,0,NORTHRIDGE,CA,91324, LOS ANGELES,34.258152,-118.53779
MOMMY'S NUTRITIONAL CENTER #18,E 860 CARSON ST, STE 112,CARSON,CA,90745, LOS ANGELES,33.830681,-118.25972
LA MEXICANA MEAT MARKET, 5392 POPLAR BLVD,0,LOS ANGELES,CA,90032, LOS ANGELES,34.089516,-118.16378
WAL-MART #2226, 19340 HAWTHORNE BLVD,0,TORRANCE,CA,90503, LOS ANGELES,33.85531,-118.35362
WAL-MART #3133,N 1425 HACIENDA BLVD,0,LA PUENTE,CA,91744, LOS ANGELES,34.046428,-117.9485
BAJA RANCH MARKET #2, 2515 FAIR OAKS AVE,0,ALTADENA,CA,91001, LOS ANGELES,34.188862,-118.15043
SUPERIOR GROCERS #140,16100 LAKEWOOD BLVD,,BELLFLOWER,CA,90706,LOS ANGELES,33.888189,-118.14176
FAMILY NUTRITION #2,10444 CALIFORNIA AVE,,SOUTH GATE,CA,90280,LOS ANGELES,33.938281,-118.2081
EL AHORRO STORE,W 449 ANAHEIM ST,UNIT B,LONG BEACH,CA,90813,LOS ANGELES,33.782918,-118.19755
CARNICERIA DON JUAN #2,12922 VANOWEN ST,,NORTH HOLLYWOOD,CA,91605,LOS ANGELES,34.193722,-118.41465
UNO PRODUCE MARKET,S 4100 BROADWAY,,LOS ANGELES,CA,90037,LOS ANGELES,34.008969,-118.2782
LA CACHANILLA #3,N 345 AZUSA AVE,,AZUSA,CA,91702,LOS ANGELES,34.127819,-117.90795
FAMILY NUTRITION,10816 INGLEWOOD AVE,STE 102B,LENNOX,CA,90304,LOS ANGELES,33.937636,-118.36085
VONS #2155,E 550 BASELINE ROAD,,CLAREMONT,CA,91711,LOS ANGELES,34.120717,-117.70611
VONS #2264,N 655 FAIR OAKS AVE,,PASADENA,CA,91103,LOS ANGELES,34.157393,-118.15057
VONS #2270,4030 CENTINELA AVE,,LOS ANGELES,CA,90066,LOS ANGELES,33.998525,-118.42964
VONS #2030,N 25850 THE OLD ROAD,,VALENCIA,CA,91381,LOS ANGELES,34.390792,-118.57349
VONS #3519,4550 ATLANTIC AVE,,LONG BEACH,CA,90807,LOS ANGELES,33.841472,-118.1847
VONS #2665,W 4520 SUNSET BLVD,,LOS ANGELES,CA,90027,LOS ANGELES,34.098158,-118.28831
VONS #2123,777 GLENDORA AVE,,WEST COVINA,CA,91790,LOS ANGELES,34.061888,-117.93154
PAVILIONS #2225,6534 PLATT AVE,,WEST HILLS,CA,91307,LOS ANGELES,34.188751,-118.64268
VONS #1673,8201 TOPANGA CANYON BLVD,,CANOGA PARK,CA,91304,LOS ANGELES,34.21798,-118.60694
VONS #3258,804 BEVERLY BLVD,,MONTEBELLO,CA,90640,LOS ANGELES,34.017265,-118.10609
VONS #2125,1160 VIA VERDE AVE,,SAN DIMAS,CA,91773,LOS ANGELES,34.072659,-117.82913
VONS #2100,9860 NATIONAL BLVD,,CHEVIOT HILLS,CA,90034,LOS ANGELES,34.030151,-118.40143
BAJA RANCH MARKET #5,E 475 ORANGE GROVE BLVD,,PASADENA,CA,91104,LOS ANGELES,34.157761,-118.14058
BIG SAVER FOODS #06,N 2619 FIGUEROA ST,,LOS ANGELES,CA,90065,LOS ANGELES,34.084748,-118.22211
EL SUPER #18,5610 YORK BLVD,,LOS ANGELES,CA,90042,LOS ANGELES,34.119332,-118.19626
SUPER A FOODS #08,W 2924 BEVERLY BLVD,,MONTEBELLO,CA,90640,LOS ANGELES,34.022724,-118.13426
EL SUPER #47,315 SAN FERNANDO MISSION BLVD,,SAN FERNANDO,CA,91340,LOS ANGELES,34.283612,-118.44372
NORTHGATE MARKET #32,S 15107 ATLANTIC AVE,,COMPTON,CA,90221,LOS ANGELES,33.89609,-118.19348
BABY NUTRITIONALCENTER,W 1627 PICO BLVD,,LOS ANGELES,CA,90015,LOS ANGELES,34.044872,-118.2774
SUPER A FOODS #10,8116 CALIFORNIA AVE,,SOUTH GATE,CA,90280,LOS ANGELES,33.961839,-118.20429
SOTO'S KIDS NUTRITION,S 1260 SOTO ST,STE 2,LOS ANGELES,CA,90023,LOS ANGELES,34.027091,-118.21901
R-RANCH MARKET #11,E 17305 VALLEY BLVD,,LA PUENTE,CA,91744,LOS ANGELES,34.010121,-117.92668
EL SUPER #24,N 1285 HACIENDA BLVD,,LA PUENTE,CA,91744,LOS ANGELES,34.044334,-117.94933
EL PAISA MARKET,E 3901 CESAR E. CHAVEZ AVE,,LOS ANGELES,CA,90063,LOS ANGELES,34.04077,-118.18208
EL NUEVO GUADALAJARA MEAT MKT,6790 LONG BEACH BLVD,,LONG BEACH,CA,90805,LOS ANGELES,33.877554,-118.20344
EL DURANGUITO MEAT MARKET,7614 EASTERN AVE,,BELL GARDENS,CA,90201,LOS ANGELES,33.963607,-118.16499
EL NUEVO GUADALAJARA MEAT MKT,3843 WHITTIER BLVD,,LOS ANGELES,CA,90023,LOS ANGELES,34.024167,-118.19084
ABC NUTRITIONAL CARE,E 1460 HOLT AVE,STE 6,POMONA,CA,91767,LOS ANGELES,34.061408,-117.72072
EL SUPER #49,450 LONG BEACH BLVD,,LONG BEACH,CA,90802,LOS ANGELES,33.773005,-118.18842
VALLARTA SUPERMARKETS #3,9134 VAN NUYS BLVD,,PANORAMA CITY,CA,91402,LOS ANGELES,34.236261,-118.44996
LA POBLANA MEAT MARKET,E 5111 OLYMPIC BLVD,,LOS ANGELES,CA,90022,LOS ANGELES,34.016935,-118.16044
LA MEXICANA MARKET,2090 SANTA FE AVE,,LONG BEACH,CA,90810,LOS ANGELES,33.795533,-118.21537
PAVILIONS #3208,E 745 NAOMI AVE,,ARCADIA,CA,91007,LOS ANGELES,34.122348,-118.06756
SMART & FINAL #333,10833 LONG BEACH BLVD,,LYNWOOD,CA,90262,LOS ANGELES,33.934409,-118.21283
VONS #2502,E 500 MANCHESTER BLVD,,INGLEWOOD,CA,90301,LOS ANGELES,33.960257,-118.34916
EL RECREO MARKET,W 2501 TEMPLE ST,,LOS ANGELES,CA,90026,LOS ANGELES,34.072064,-118.27351
SUPERIOR GROCERS,15000 CRENSHAW BLVD,,GARDENA,CA,90249,LOS ANGELES,33.894952,-118.32558
LA ALICIA MEAT MARKET,E 3114 4TH ST,,LOS ANGELES,CA,90063,LOS ANGELES,34.035482,-118.20081
ABC NUTRITIONAL CARE,1023 PALMDALE BLVD,,PALMDALE,CA,93550,LOS ANGELES,34.579633,-118.11104
CARNICERIA 21 MARKET,N 825 VIRGIL AVE,,LOS ANGELES,CA,90029,LOS ANGELES,34.086442,-118.28717
LA BODEGA #1,E 1883 10TH ST,,LONG BEACH,CA,90813,LOS ANGELES,33.779123,-118.16896
SMART & FINAL #305,W 1005 ARROW HWY,,SAN DIMAS,CA,91773,LOS ANGELES,34.106741,-117.82737
VONS #3161,10321 SEPULVEDA BLVD,,MISSION HILLS,CA,91345,LOS ANGELES,34.25825,-118.46752
PAVILIONS #2209,5500 WOODRUFF AVE,,LAKEWOOD,CA,90713,LOS ANGELES,33.858068,-118.11577
SUPER CHIVAS FARM MARKET,S 7902 BROADWAY AVE,,LOS ANGELES,CA,90003,LOS ANGELES,33.967859,-118.27829
WAL-MART #5164,11729 IMPERIAL HWY,,NORWALK,CA,90650,LOS ANGELES,33.917896,-118.08301
LA INCOMPARABLE,4140 WHITTIER BLVD,,LOS ANGELES,CA,90023,LOS ANGELES,34.023718,-118.18101
MOTHERS NUTRITIONAL CENTER#603,S 108 MARKET ST,,INGLEWOOD,CA,90301,LOS ANGELES,33.962804,-118.35193
PRIME TIME NUTRITION #5,S 2226 GAREY AVE,,POMONA,CA,91766,LOS ANGELES,34.03095,-117.74909
MOTHERS NUTRITIONAL CENTER#434,E 2919 FLORENCE AVE,,HUNTINGTON PARK,CA,90255,LOS ANGELES,33.973343,-118.21673
ROWAN FOOD MARKET,S 535 ROWAN AVE,,LOS ANGELES,CA,90063,LOS ANGELES,34.02944,-118.18755
BABY NUTRITIONAL CENTER,S 4705 BROADWAY,,LOS ANGELES,CA,90037,LOS ANGELES,34.000838,-118.27834
MOTHERS NUTRITIONAL CENTER#443,S 6224 VERMONT AVE,,LOS ANGELES,CA,90044,LOS ANGELES,33.983039,-118.29112
MOTHERS NUTRITIONAL CENTER#216,14549 TELEGRAPH RD,,LA MIRADA,CA,90638,LOS ANGELES,33.92407,-118.0229
MARAVILLA UTIL. SER. MEAT M,E 4732 CESAR E. CHAVEZ AVE,,LOS ANGELES,CA,90022,LOS ANGELES,34.040284,-118.16356
LA MEXICANA SUPERMARKET,1318 PINE AVE,,LONG BEACH,CA,90813,LOS ANGELES,33.783034,-118.19199
MOTHERS NUTRITIONAL CENTER#426,W 2120 8TH ST,UNIT 103,LOS ANGELES,CA,90057,LOS ANGELES,34.055058,-118.27874
MOTHERS NUTRITIONAL CENTER#232,E 424 WASHINGTON BLVD,,LOS ANGELES,CA,90015,LOS ANGELES,34.029028,-118.26043
LA BARATA SUPERMARKET,8025 VINELAND AVE,,SUN VALLEY,CA,91352,LOS ANGELES,34.216465,-118.37033
MOTHERS NUTRITIONAL CENTER#436,E 1323 HUNTINGTON DR,,DUARTE,CA,91010,LOS ANGELES,34.139561,-117.97647
NUMERO UNO MARKET #101,E 701 JEFFERSON BLVD,,LOS ANGELES,CA,90011,LOS ANGELES,34.015578,-118.2645
MOTHERS NUTRITIONAL CENTER#412,7026 RUGBY AVE,,HUNTINGTON PARK,CA,90255,LOS ANGELES,33.975834,-118.2265
BABY NUTRITION,S 3991 WESTERN AVE,STE 9A,LOS ANGELES,CA,90062,LOS ANGELES,34.011687,-118.30951
MOTHERS NUTRITIONAL CENTER#423,4243 MAINE AVE,,BALDWIN PARK,CA,91706,LOS ANGELES,34.089982,-117.96044
S & M NUTRITION,7625 EASTERN AVE,F,BELL GARDENS,CA,90201,LOS ANGELES,33.963454,-118.16566
CHRISTINAS MARKET,S 2715 VERMONT AVE,,LOS ANGELES,CA,90007,LOS ANGELES,34.03034,-118.29154
MOTHERS NUTRITIONAL CENTER#612,13643 VAN NUYS BLVD,,PACOIMA,CA,91331,LOS ANGELES,34.260594,-118.43022
MOTHERS NUTRITIONAL CENTER#447,E 1350 FLORENCE AVE,,LOS ANGELES,CA,90001,LOS ANGELES,33.974473,-118.25014
RIO MEAT MARKET & RESTAURANT,N 2029 FAIR OAKS AVE,,PASADENA,CA,91103,LOS ANGELES,34.180892,-118.15075
BABY NUTRITIONAL CENTER,S 6001 VERMONT AVE,UNIT C,LOS ANGELES,CA,90044,LOS ANGELES,33.985522,-118.29186
IMPERIAL MARKET,E 3100 IMPERIAL HWY,1300,LYNWOOD,CA,90262,LOS ANGELES,33.929383,-118.21512
ARCOIRIS,S 600 INDIANA ST,,LOS ANGELES,CA,90023,LOS ANGELES,34.028143,-118.19214
LA BODEGA MEXICANA #1,6001 ATLANTIC AVE,,LONG BEACH,CA,90805,LOS ANGELES,33.863911,-118.18541
RAPIDO LONG BEACH MARKET,6820 LONG BEACH BLVD,,LONG BEACH,CA,90805,LOS ANGELES,33.878137,-118.20355
LITTLE FARMERS MARKET,S 619 ATLANTIC BLVD,,LOS ANGELES,CA,90022,LOS ANGELES,34.024345,-118.15644
LA BODEGA RANCH MARKET,6688 LONG BEACH BLVD,,LONG BEACH,CA,90805,LOS ANGELES,33.875966,-118.20317
LA GAVIOTA MEAT MARKET,E 1701 ANAHEIM ST,,LONG BEACH,CA,90813,LOS ANGELES,33.782914,-118.1706
ZEENA'S NUTRITION,E 2120 FIRST ST,,LOS ANGELES,CA,90033,LOS ANGELES,34.04442,-118.21316
HAGGEN FOOD AND PHARMACY #2165,2115 ARTESIA BLVD,,REDONDO BEACH,CA,90278,LOS ANGELES,33.873359,-118.37344
WAL-MART #2568,8333 VAN NUYS BLVD,,PANORAMA CITY,CA,91402,LOS ANGELES,34.222574,-118.44954
BABY NUTRITIONAL CENTER,6526 CRENSHAW BLVD,,LOS ANGELES,CA,90043,LOS ANGELES,33.980109,-118.33086
MOTHERS NUTRITIONAL CENTER#228,E 156 COMPTON BLVD,,COMPTON,CA,90221,LOS ANGELES,33.895895,-118.22292
NUMERO UNO MARKET #106,S 500 PACIFIC AVE,,SAN PEDRO,CA,90731,LOS ANGELES,33.739386,-118.28726
LA BODEGA PRODUCE MARKET #5,E 2900 ANAHEIM ST,,LONG BEACH,CA,90804,LOS ANGELES,33.782346,-118.15769
LIQUOR ZONE,S 424 CENTRAL AVE,,GLENDALE,CA,91204,LOS ANGELES,34.140708,-118.25787
ADLONG MEAT MARKET,W 1550 ADAMS BLVD,,LOS ANGELES,CA,90007,LOS ANGELES,34.03221,-118.29627
HAGGEN FRESH FOODS #2166,2627 LINCOLN BLVD,,SANTA MONICA,CA,90405,LOS ANGELES,34.006341,-118.47554
MOTHERS NUTRITIONAL CENTER#600,21013 SHERMAN WAY,STE 5,CANOGA PARK,CA,91303,LOS ANGELES,34.201105,-118.59102
MOTHERS NUTRITIONAL CENTER#609,S 1835 LA CIENEGA BLVD,STE J,LOS ANGELES,CA,90035,LOS ANGELES,34.043562,-118.3766
"ESTRELLA FOODS MARKET, INC.",12005 GARFIELD AVE,,SOUTH GATE,CA,90280,LOS ANGELES,33.917728,-118.169
FAMILY MARKET & 99 CENT STORE,12539 PRAIRIE AVE,,HAWTHORNE,CA,90250,LOS ANGELES,33.91844,-118.34422
NORTHGATE MARKET #19,2633 SANTA ANA ST,,SOUTH GATE,CA,90280,LOS ANGELES,33.964676,-118.22399
CHALIA'S EXPRESS NUTRITIONA,E 3578 1ST ST,,LOS ANGELES,CA,90063,LOS ANGELES,34.035779,-118.1897
ALHAMBRA MARKET,W 2289 MAIN ST,,ALHAMBRA,CA,91801,LOS ANGELES,34.093828,-118.1482
NUMERO UNO MARKET #108,S 4373 VERMONT AVE,,LOS ANGELES,CA,90037,LOS ANGELES,34.004095,-118.2924
BELLAMAR MARKET,W 2607 6TH ST,,LOS ANGELES,CA,90057,LOS ANGELES,34.062098,-118.2805
LATINO'S MARKET,W 1111 PACIFIC COAST HWY,,HARBORCITY,CA,90710,LOS ANGELES,33.79097,-118.28729
"NUMERO UNO MARKET, #109",W 1141 CARSON ST,,TORRANCE,CA,90502,LOS ANGELES,33.831567,-118.29647
PRIME TIME NUTRITION #11,5930 SANTA MONICA BLVD,,LOS ANGELES,CA,90038,LOS ANGELES,34.090748,-118.31827
MOTHERS NUTRITIONAL CENTER#448,1805 INDIAN HILL BLVD,,POMONA,CA,91767,LOS ANGELES,34.07731,-117.71966
MOTHERS NUTRITIONAL CENTER#446,W 4222 BEVERLY BLVD,,LOS ANGELES,CA,90004,LOS ANGELES,34.076273,-118.30125
TARGET STORE T-0257,24425 MAGIC MOUNTAIN PKWY,,VALENICA,CA,91355,LOS ANGELES,34.419364,-118.56108
MOTHERS NUTRITIONAL CENTER#602,6424 BELLINGHAM AVE,,NORTH HOLLYWOOD,CA,91606,LOS ANGELES,34.187161,-118.39874
MOTHERS NUTRITIONAL CENTER#611,6601 RUGBY AVE,,HUNTINGTON PARK,CA,90255,LOS ANGELES,33.979105,-118.22686
MOTHERS NUTRITIONAL CENTER#418,3665 CRENSHAW BLVD,,LOS ANGELES,CA,90016,LOS ANGELES,34.020979,-118.33517
VERNON MARKET,E 272 VERNON AVE,,LOS ANGELES,CA,90011,LOS ANGELES,34.003853,-118.26969
LA BODEGA MEXICANA #2,5575 ATLANTIC AVE,,LONG BEACH,CA,90805,LOS ANGELES,33.857605,-118.18525
PRIME TIME NUTRITION #3,13720 AMAR RD,,LA PUENTE,CA,91746,LOS ANGELES,34.054201,-117.97772
MOTHERS NUTRITIONAL CENTER#444,11849 LAKEWOOD BLVD,,DOWNEY,CA,90241,LOS ANGELES,33.92763,-118.12992
EL SUPER GUERRERO MARKET,E 6203 GAGE AVE,,BELL GARDENS,CA,90201,LOS ANGELES,33.974123,-118.15005
HAGGEN FOOD & PHARMACY 2162,S 3443 SEPULVEDA BLVD,,LOS ANGELES,CA,90034,LOS ANGELES,34.019498,-118.42324
RAUL'S MARKET,1939 NADEAU ST,,LOS ANGELES,CA,90001,LOS ANGELES,33.967389,-118.23765
MOTHERS NUTRITIONAL CENTER#,W 4100 PICO BLVD,STE 1 & 2,LOS ANGELES,CA,90019,LOS ANGELES,34.04763,-118.32457
PRIME TIME NUTRITION #12B,15948 AMAR RD,,CITY OF INDUSTRY,CA,91744,LOS ANGELES,34.03625,-117.93725
HAPPY BEER WINE MARKET,E 1220 ANAHEIM ST,,LONG BEACH,CA,90813,LOS ANGELES,33.782596,-118.17578
MOTHERS NUTRITIONAL CENTER#432,13927 SAN ANTONIO AVE,,NORWALK,CA,90650,LOS ANGELES,33.904582,-118.08016
VONS #2056,E 932 BADILLO ST,,COVINA,CA,91724,LOS ANGELES,34.085363,-117.87132
NORTHGATE MARKET #37,S 425 SOTO ST,,LOS ANGELES,CA,90033,LOS ANGELES,34.040238,-118.21303
HAGGEN FOOD & PHARMACY 2136,6240 FOOTHILL BLVD,,TUJUNGA,CA,91042,LOS ANGELES,34.240568,-118.26807
MOTHERS NUTRITIONAL CENTER#209,W 700 IMPERIAL HWY,UNIT 104/105,LOS ANGELES,CA,90044,LOS ANGELES,33.930588,-118.28734
HAGGEN FOOD & PHARMACY 2178,W 1636 25TH ST,,SAN PEDRO,CA,90732,LOS ANGELES,33.723956,-118.31339
MOTHERS NUTRITIONAL CENTER#411,3848 TWEEDY BLVD,,SOUTH GATE,CA,90280,LOS ANGELES,33.943742,-118.20372
T2000 RANCH MARKET,E 275 ORANGE GROVE BLVD,,PASADENA,CA,91104,LOS ANGELES,34.158061,-118.14469
VALLARTA SUPERMARKET #47,18571 SOLEDAD CANYON RD,,CANYON COUNTRY,CA,91351,LOS ANGELES,34.416322,-118.45737
MOMMY & ME NUTRITION,7416 FOOTHILL BLVD,,TUJUNGA,CA,91042,LOS ANGELES,34.251682,-118.29367
ZARAGOZA MEAT MARKET #1,14907 VANOWEN ST,,VAN NUYS,CA,91405,LOS ANGELES,34.193918,-118.4576
FRESH FOOD RANCH MARKET,S 23501 AVALON BLVD,,CARSON,CA,90745,LOS ANGELES,33.804835,-118.26399
PRIME TIME NUTRITION #502,N 44258 10TH ST,,LANCASTER,CA,93534,LOS ANGELES,34.686915,-118.14798
MOTHERS NUTRITIONAL CENTER#421,16000 PARAMOUNT BLVD,UNIT C,PARAMOUNT,CA,90723,LOS ANGELES,33.887836,-118.15997
LARA'S MARKET,N 700 FICKETT ST,,LOS ANGELES,CA,90033,LOS ANGELES,34.049453,-118.20357
FOOD 4 LESS #327,N 1329 LAKE AVE,,PASADENA,CA,91104,LOS ANGELES,34.168735,-118.13224
HAGGEN FOOD & PHARMACY 2213,27095 MCBEAN PKWY,,SANTA CLARITA,CA,91355,LOS ANGELES,34.423288,-118.56258
PRIME TIME NUTRITION #7,N 1311 GLENDALE BLVD,UNIT F,LOS ANGELES,CA,90026,LOS ANGELES,34.078405,-118.26042
NUMERO UNO MARKET #107,S 4710 BROADWAY,,LOS ANGELES,CA,90037,LOS ANGELES,34.00067,-118.27794
MERCADO EL MEXICANO,E 1900 ALONDRA BLVD,,COMPTON,CA,90221,LOS ANGELES,33.888446,-118.20181
CALIFORNIA MARKET,7639 GREENLEAF AVE,,WHITTIER,CA,90602,LOS ANGELES,33.972577,-118.03773
HAPPY MARKET,8609 LONG BEACH BLVD,,SOUTH GATE,CA,90280,LOS ANGELES,33.958777,-118.22221
BABY NUTRITIONAL CENTER,3871 WHITTIER BLVD,,LOS ANGELES,CA,90023,LOS ANGELES,34.023917,-118.18979
SANTA MONICA GROCERY MEAT MKT,4621 SANTA MONICA BLVD,,LOS ANGELES,CA,90029,LOS ANGELES,34.091145,-118.29011
LA BODEGA #2,E 1001 10TH ST,,LONG BEACH,CA,90813,LOS ANGELES,33.77897,-118.18042
PRIME TIME NUTRITION #522,845 AVENUE I,,LANCASTER,CA,93535,LOS ANGELES,34.704167,-118.11407
HAGGEN FRESH FOODS #2164,N 615 PACIFIC COAST HWY,,REDONDO BEACH,CA,90277,LOS ANGELES,33.852054,-118.38945
EAST 15TH STREET MARKET,E 1732 15TH ST,,LONG BEACH,CA,90813,LOS ANGELES,33.786221,-118.17029
NUMERO UNO MARKET #110,W 1831 3RD ST,,LOS ANGELES,CA,90057,LOS ANGELES,34.061467,-118.26929
HAGGEN FOOD & PHARMACY 2132,5770 LINDERO CANYON RD,,WESTLAKE VILLAGE,CA,91362,LOS ANGELES,34.154057,-118.79464
LOS JALISCIENSES MEAT MARKE,16310 HAWTHORNE BLVD,,LAWNDALE,CA,90260,LOS ANGELES,33.882309,-118.35204
ANGELITO'S NUTRITION #3,E 5985 FLORENCE AVE,UNIT M,BELL GARDENS,CA,90201,LOS ANGELES,33.970346,-118.18838
PRIME TIME NUTRITION #13,8868 MISSION DR,UNIT A,ROSEMEAD,CA,91770,LOS ANGELES,34.084879,-118.07581
TARGET STORE T-2319,E 950 33RD ST,,SIGINAL HILL,CA,90755,LOS ANGELES,33.817057,-118.18176
MOTHERS NUTRITIONAL CENTER#437,W 2309 WHITTIER BLVD,,MONTEBELLO,CA,90640,LOS ANGELES,34.013707,-118.12584
MOTHERS NUTRITIONAL CENTER#430,S 4353 CENTRAL AVE,,LOS ANGELES,CA,90011,LOS ANGELES,34.004794,-118.25648
HAGGEN FRESH FOODS #2174,2130 PACIFIC COAST HWY,,LOMITA,CA,90717,LOS ANGELES,33.789009,-118.31813
MOTHERS NUTRITIONAL CENTER#442,22227 NORWALK BLVD,,HAWAIIAN GARDENS,CA,90716,LOS ANGELES,33.826138,-118.07245
HAGGEN FRESH FOODS #2160,S 240 DIAMOND BAR BLVD,,DIAMOND BAR,CA,91765,LOS ANGELES,34.021827,-117.8095
J RANCHO MARKET,5559 ATLANTIC BLVD,,MAYWOOD,CA,90270,LOS ANGELES,33.990244,-118.18542
MOTHERS NUTRITIONAL CENTER#435,W 1985 ADAMS BLVD,UNIT 104,LOS ANGELES,CA,90018,LOS ANGELES,34.033252,-118.30824
WABASH MARKET,2844 WABASH AVE,,LOS ANGELES,CA,90033,LOS ANGELES,34.0499,-118.19664
LEON GROCERIES,6048 FLORENCE AVE,SUITE C,BELL GARDENS,CA,90201,LOS ANGELES,33.966446,-118.15619
BABY NUTRITIONAL CENTER,S 4123 HOOVER ST,,LOS ANGELES,CA,90037,LOS ANGELES,34.008581,-118.28722
TARGET STORE T-1307,5711 SEPULVEDA BLVD,,VAN NUYS,CA,91411,LOS ANGELES,34.174711,-118.46646
LOS COMPADRES MEAT MKT & RE,4483 WHITTIER BLVD,,LOS ANGELES,CA,90022,LOS ANGELES,34.023371,-118.17144
NUMERO UNO MARKET #103,S 9127 FIGUEROA ST,,LOS ANGELES,CA,90003,LOS ANGELES,33.953564,-118.28308
WAL-MART NBRHD MARKET #5689,3875 RANCHO VISTA BLVD,,PALMDALE,CA,93551,LOS ANGELES,34.60357,-118.18769
GUADALAJARA SUPERMARKET,W 1600 MISSION BLVD,,POMONA,CA,91766,LOS ANGELES,34.053671,-117.77545
MOTHERS NUTRITIONAL CENTER#217,2324 WHITTIER BLVD,STE 4&5,LOS ANGELES,CA,90023,LOS ANGELES,34.034298,-118.2163
MOTHERS NUTRITIONAL CENTER#408,17610 BELLFLOWER BLVD,STE 101-102,BELLFLOWER,CA,90706,LOS ANGELES,33.872644,-118.12519
MOTHERS NUTRITIONAL CENTER#405,S 6501 GARFIELD AVE,UNIT C,BELL GARDENS,CA,90201,LOS ANGELES,33.972891,-118.14754
BELLAMAR MARKET,W 1429 3RD ST,,LOS ANGELES,CA,90017,LOS ANGELES,34.05886,-118.26241
GUADALAJARA MARKET,W 1134 MISSION BLVD,,POMONA,CA,91766,LOS ANGELES,34.054417,-117.76411
MOTHERS NUTRITIONAL CENTER#211,S 4110 FIGUEROA ST,,LOS ANGELES,CA,90037,LOS ANGELES,34.008758,-118.28243
MOTHERS NUTRITIONAL CENTER#415,15625 HAWTHORNE BLVD,UNIT F,LAWNDALE,CA,90260,LOS ANGELES,33.888859,-118.35272
WEST LA INTERNATIONAL MARKE,10817 VENICE BLVD,,LOS ANGELES,CA,90034,LOS ANGELES,34.017618,-118.40969
HAGGEN FRESH FOODS #2163,S 1516 PACIFIC COAST HWY,,REDONDO BEACH,CA,90277,LOS ANGELES,33.820929,-118.38434
LA TERNERA MEAT MARKET,6841 LENNOX AVE,,VAN NUYS,CA,91405,LOS ANGELES,34.195138,-118.44604
MOTHERS NUTRITIONAL CENTER#440,18353 SHERMAN WAY,,RESEDA,CA,91335,LOS ANGELES,34.201455,-118.53355
C & C MARKET,E 3300 8TH ST,,LOS ANGELES,CA,90023,LOS ANGELES,34.022297,-118.20692
MERCADO DEL REY #5,15256 PARTHENIA ST,,NORTH HILLS,CA,91343,LOS ANGELES,34.228268,-118.4652
HAGGEN FRESH FOODS #2169,23381 MULHOLLAND DR,,WOODLAND HILLS,CA,91364,LOS ANGELES,34.158337,-118.63596
UNO FRESH FARM MARKET,S 4077 AVALON BLVD,,LOS ANGELES,CA,90011,LOS ANGELES,34.009658,-118.26526
LA CORONA DEL PROVEDOR,3652 NORWALK BLVD,,LONG BEACH,CA,90808,LOS ANGELES,33.822441,-118.07178
MOTHERS NUTRITIONAL CENTER#607,N 1008 CITRUS AVE,,COVINA,CA,91723,LOS ANGELES,34.097347,-117.89019
ABC NUTRITIONAL CARE,N 4827 HUNTINGTON DR,STE B,LOS ANGELES,CA,90032,LOS ANGELES,34.085919,-118.17916
VALLARTA SUPERMARKET #26,9011 WOODMAN AVE,,ARLETA,CA,91331,LOS ANGELES,34.233202,-118.43972
LA MEXICANA MEAT MARKET,S 14309 ATLANTIC AVE,STE 106,COMPTON,CA,90221,LOS ANGELES,33.90309,-118.19424
RAUL'S MARKET,S 11214 CENTRAL AVE,,LOS ANGELES,CA,90059,LOS ANGELES,33.932517,-118.2539
MOTHERS NUTRITIONAL CENTER#604,7132 VAN NUYS BLVD,,VAN NUYS,CA,91405,LOS ANGELES,34.20022,-118.44875
MOTHERS NUTRITIONAL CENTER#414,E 10016 GARVEY AVE,UNIT 4,EL MONTE,CA,91733,LOS ANGELES,34.06272,-118.05066
LA BODEGA RANCH MARKET,4945 LONG BEACH BLVD,,LONG BEACH,CA,90805,LOS ANGELES,33.845854,-118.19385
EL RANCHO MARKET,N 1115 ALVARADO ST,,LOS ANGELES,CA,90026,LOS ANGELES,34.077978,-118.26323
VALLEY NUTRITION #3,2037 GLENOAKS BLVD,,SAN FERNANDO,CA,91340,LOS ANGELES,34.298847,-118.43848
MOTHERS NUTRITIONAL CENTER#450,8530 VAN NUYS BLVD,,PANAROMA CITY,CA,91402,LOS ANGELES,34.225507,-118.4489
CALIMEX MARKET,2901 WHITTIER BLVD,K,LOS ANGELES,CA,90023,LOS ANGELES,34.031021,-118.20821
SUPERIOR GROCERS,12630 HAWTHORNE BLVD,,HAWTHORNE,CA,90250,LOS ANGELES,33.91741,-118.35124
LAKEVIEW FARM MARKET,11950 FOOTHILL BLVD,,LAKE VIEW TERRACE,CA,91342,LOS ANGELES,34.275169,-118.39744
MOTHERS NUTRITIONAL CENTER#439,E 8870 WHITTIER BLVD,,PICO RIVERA,CA,90660,LOS ANGELES,34.007353,-118.09781
PRIME TIME NUTRITION #2,S 413 AZUSA AVE,,LA PUENTE,CA,91744,LOS ANGELES,34.013871,-117.92266
PRODUCE FOR LESS,5059 MELROSE AVE,,LOS ANGELES,CA,90038,LOS ANGELES,34.083757,-118.3106
MOTHERS NUTRITIONAL CENTER#452,N 4311 FIGUEROA ST,,LOS ANGELES,CA,90065,LOS ANGELES,34.094859,-118.20821
MOTHERS NUTRITIONAL CNT#608,W 1605 WASHINGTON BLVD,,LOS ANGELES,CA,90006,LOS ANGELES,34.039999,-118.29245
MOTHERS NUTRITIONAL CENTER#407,E 423 FLORENCE AVE,,LOS ANGELES,CA,90003,LOS ANGELES,33.974991,-118.26666
MARVIN'S MARKET,4802 MELROSE AVE,,LOS ANGELES,CA,90029,LOS ANGELES,34.083533,-118.30496
MOTHERS NUTRITIONAL CENTER#202,E 260 MANCHESTER BLVD,UNIT A&B,LOS ANGELES,CA,90003,LOS ANGELES,33.960063,-118.26949
MOTHERS NUTRITIONL CENTER #235,S 10223 CENTRAL AVE,,LOS ANGELES,CA,90002,LOS ANGELES,33.943497,-118.2544
NUMERO UNO MARKET #104,E 310 MANCHESTER AVE,,LOS ANGELES,CA,90003,LOS ANGELES,33.959807,-118.26843
ANGELITO'S NUTRITION #2,S 2526 SAN PEDRO ST,,LOS ANGELES,CA,90011,LOS ANGELES,34.022001,-118.26105
PRIME TIME NUTRITION 518B,E 2247 PALMDALE BLVD,STE F,PALMDALE,CA,93550,LOS ANGELES,34.580511,-118.0881
NUMERO UNO MARKET #102,1309 ALVARADO ST,,LOS ANGELES,CA,90006,LOS ANGELES,34.046966,-118.28287
BELLAMAR NUTRITION CENTER,S 709 ATLANTIC BLVD,,LOS ANGELES,CA,90022,LOS ANGELES,34.022269,-118.15672
TARGET STORE T-2020,8999 BALBOA BLVD,,NORTHRIDGE,CA,91325,LOS ANGELES,34.23485,-118.50256
JUREMA NUTRITION,4919 HOOPER AVE,,LOS ANGELES,CA,90011,LOS ANGELES,33.998339,-118.25212
EL TAPATIO MARKETS #103,E 3208 FLORENCE AVE,,HUNTINGTON PARK,CA,90255,LOS ANGELES,33.972224,-118.21023
TOP VALU #18,W 970 FIRST ST,,SAN PEDRO,CA,90731,LOS ANGELES,33.743774,-118.2984
STATER BROS. MARKETS #194,N 1023 GRAND AVE,,COVINA,CA,91724,LOS ANGELES,34.098146,-117.87265
HAGGEN FRESH FOODS #2167,26518 BOUQUET CANYON RD,,SANGUS,CA,91350,LOS ANGELES,34.428093,-118.53634
TARGET STORE T-0245,43525 10TH ST W,,LANCASTER,CA,93534,LOS ANGELES,34.673649,-118.14795
MICKEY'S NUTRITION,E 7096 GAGE AVE,,COMMERCE,CA,90040,LOS ANGELES,33.973482,-118.12985
DISCOUNT STORE,S 5001 HOOVER ST,,LOS ANGELES,CA,90037,LOS ANGELES,33.997624,-118.2873
LA MEXICANA MARKET,W 1261 EL SEGUNDO BLVD,,GARDENA,CA,90247,LOS ANGELES,33.916428,-118.2979
LA TARASCA MEAT MARKET,8204 LONG BEACH BLVD,STE A,SOUTH GATE,CA,90280,LOS ANGELES,33.964052,-118.22517
SUPERMERCADO VALLARTA #8,9136 SEPULVEDA BLVD,,NORTH HILLS,CA,91343,LOS ANGELES,34.236511,-118.46668
LA PREMIER #2,S 420 LONG BEACH BLVD,,COMPTON,CA,90221,LOS ANGELES,33.892988,-118.20775
AMIGO MARKET,W 2400 WARDLOW RD,,LONG BEACH,CA,90810,LOS ANGELES,33.824027,-118.22355
LA BLANQUITA CARNICERIA,E 4136 CESAR E CHAVEZ AVE,,LOS ANGELES,CA,90063,LOS ANGELES,34.040365,-118.17678
ROYALTY MARKET,S 6200 SAN PEDRO ST,,LOS ANGELES,CA,90003,LOS ANGELES,33.983141,-118.26928
LA BLANQUITA TORTILLERIA,E 11859 VALLEY BLVD,,EL MONTE,CA,91732,LOS ANGELES,34.064098,-118.02121
MOTHERS NUTRITIONAL CENTER#401,3361 TWEEDY BLVD,,SOUTH GATE,CA,90280,LOS ANGELES,33.944953,-118.2099
MOTHERS NUTRITIONAL CENTER#402,7503 ATLANTIC BLVD,UNIT B,CUDAHY,CA,90201,LOS ANGELES,33.96756,-118.18753
BIG SAVER FOODS #19,E 2300 7TH ST,,LONG BEACH,CA,90804,LOS ANGELES,33.774691,-118.16432
KIDS NUTRITION R US,E 2176 103RD ST,,LOS ANGELES,CA,90002,LOS ANGELES,33.943113,-118.23306
MY LIQUOR BANK MEAT & MARKE,W 3753 SLAUSON AVE,,LOS ANGELES,CA,90043,LOS ANGELES,33.989271,-118.33955
JUREMA NUTRITION II,E 1412 FLORENCE AVE,,LOS ANGELES,CA,90001,LOS ANGELES,33.974757,-118.24936
HAGGEN FRESH FOODS #2161,8985 VENICE BLVD,STE B,LOS ANGELES,CA,90034,LOS ANGELES,34.02711,-118.39283
MOTHERS NUTRITIONAL CENTER#424,3820 SLAUSON AVE,UNIT A & B,MAYWOOD,CA,90270,LOS ANGELES,33.987923,-118.19585
MERCADO HIDALGO,4101 CITY TERRACE DR,,LOS ANGELES,CA,90063,LOS ANGELES,34.055971,-118.17759
EL TAPATIO MARKETS #101,E 310 FLORENCE AVE,,LOS ANGELES,CA,90003,LOS ANGELES,33.974716,-118.26883
MOTHERS NUTRITIONAL CENTER#417,1319 LONG BEACH BLVD,,LONG BEACH,CA,90813,LOS ANGELES,33.782853,-118.1895
EL MONTE VILLAGE MARKET,3933 BALDWIN AVE,,EL MONTE,CA,91731,LOS ANGELES,34.080226,-118.05268
BABY NUTRITIONAL CENTER,S 1706 WESTERN AVE,,LOS ANGELES,CA,90006,LOS ANGELES,34.041709,-118.309
HAGGEN FOOD & PHARMACY 2134,W 5038 AVENUE  N,,PALMDALE,CA,93551,LOS ANGELES,34.629752,-118.22035
NUMERO UNO RANCHO #9,S 8200 CENTRAL AVE,,LOS ANGELES,CA,90001,LOS ANGELES,33.964582,-118.25606
OASIS MARKET,4312 WALL ST,,LOS ANGELES,CA,90011,LOS ANGELES,34.005264,-118.27134
RAMIREZ MARKET,S 510 ATLANTIC BLVD,,LOS ANGELES,CA,90022,LOS ANGELES,34.02671,-118.15538
LIVONIA GLATT MARKET,W 8922 PICO BLVD,,LOS ANGELES,CA,90035,LOS ANGELES,34.055262,-118.38641
NORTHGATE MARKET #39,4700 CHERRY AVE,,LONG BEACH,CA,90807,LOS ANGELES,33.844591,-118.167
MINI MARKET JUREMA,E 852 MANCHESTER AVE,,LOS ANGELES,CA,90001,LOS ANGELES,33.959861,-118.25889
GUADALAJARA MEAT MARKET,1985 FIRESTONE BLVD,,LOS ANGELES,CA,90001,LOS ANGELES,33.960431,-118.23646
PRIME TIME NUTRITION #1,3560 SANTA ANITA AVE,UNIT J,EL MONTE,CA,91731,LOS ANGELES,34.074768,-118.0408
ANGELITO'S NUTRITION #1,E 4000 GAGE AVE,,BELL,CA,90201,LOS ANGELES,33.979676,-118.20248
MAIN MARKET,12604 PENN ST,,WHITTIER,CA,90601,LOS ANGELES,33.975459,-118.04177
HAGGEN FOOD AND PHARMACY #2168,21035 HAWTHORNE BLVD,,TORRANCE,CA,90503,LOS ANGELES,33.839193,-118.35384
NORTHGATE MARKET #35,S 10801 PRAIRIE AVE,,INGLEWOOD,CA,90303,LOS ANGELES,33.93753,-118.34464
COUNTRY RANCH MARKET,2800 BEVERLY BLVD,,LOS ANGELES,CA,90057,LOS ANGELES,34.070278,-118.27926
NORTHGATE MARKET #41,4700 INGLEWOOD BLVD,,LOS ANGELES,CA,90230,LOS ANGELES,33.993708,-118.41463
HAGGEN FRESH FOODS #2159,W 3830 VERDUGO AVE,,BURBANK,CA,91505,LOS ANGELES,34.159781,-118.34476
MOTHERS NUTRITIONAL CENTER#429,3797 MARTIN LUTHER KING BLVD,,LYNWOOD,CA,90262,LOS ANGELES,33.928183,-118.19958
MOTHERS NUTRITIONAL CENTER#453,N 6512 FIGUEROA ST,STE F & G,LOS ANGELES,CA,90042,LOS ANGELES,34.120661,-118.18397
PRIME TIME NUTRITION #510,E 320 PALMDALE BLVD,,PALMDALE,CA,93550,LOS ANGELES,34.578861,-118.12395
MOTHERS NUTRITIONAL CNT#212,S 459 AZUSA AVE,,AZUSA,CA,91702,LOS ANGELES,34.114563,-117.90806
NUMERO UNO MARKET,2226 SAN PEDRO ST,,LOS ANGELES,CA,90011,LOS ANGELES,34.024674,-118.25934
WAL-MART NBRHD MARKET #3132,E 778 ARROW HWY,,POMONA,CA,91767,LOS ANGELES,34.090017,-117.7372
WAL-MART SUPERCENTER #4101,E 3705 SOUTH ST,,LONG BEACH,CA,90805,LOS ANGELES,33.861419,-118.1477
MOTHERS NUTRITIONAL CENTER#606,S 15212 WESTERN AVE,STE C,GARDENA,CA,90249,LOS ANGELES,33.893224,-118.30915
HAGGEN FRESH FOODS #2179,28090 SOUTH WESTERN AVE,,SAN PEDRO,CA,90732,LOS ANGELES,33.764595,-118.31108
HAGGEN FOOD AND PHARMACY #2209,E 6235 SPRING ST,,LONG BEACH,CA,90808,LOS ANGELES,33.810547,-118.11089
PACIFIC MARKET,7630 PACIFIC BLVD,,HUNTINGTON PARK,CA,90255,LOS ANGELES,33.969725,-118.22489
MAYWOOD MINI MARKET,5720 MAYWOOD AVE,,MAYWOOD,CA,90270,LOS ANGELES,33.990459,-118.20335
LITTLE CHILDREN NUTRITION M,12819 PENN ST,,WHITTIER,CA,90602,LOS ANGELES,33.975447,-118.039
LITTLE KIDS NUTRITION,8027 NORWALK BLVD,,WHITTIER,CA,90606,LOS ANGELES,33.971838,-118.07362
CHRIS SNACK & NUTRITION,S 730 ALVARADO ST,SUITE G,LOS ANGELES,CA,90057,LOS ANGELES,34.055972,-118.27712
HAPPY KIDS NUTRITION,23630 NEWHALL AVE,SUITE D,NEWHALL,CA,91321,LOS ANGELES,34.369865,-118.51331
PRIME TIME NUTRITION #526,W 701 AVENUE K,STE 108B,LANCASTER,CA,93535,LOS ANGELES,34.675932,-118.14381
GREEN FARM MARKET,W 2301 ROSENCRANS AVE,,GARDENA,CA,90249,LOS ANGELES,33.902749,-118.31924
EL PROGRESO SUPERMARKET#1,19047 PARTHENIA ST,,NORTHRIDGE,CA,91402,LOS ANGELES,34.228672,-118.5487
LA SUPREMA MEAT MARKET #2,E 16006-8 MAIN ST,,LA PUENTE,CA,91744,LOS ANGELES,34.020102,-117.94884
PRIME TIME NUTRITION #532,37926 47TH ST,STE F,CITY OF PALMDALE,CA,93552,LOS ANGELES,34.571652,-118.04392
BIG SAVER FOODS #14,E 9406 WASHINGTON BLVD,,PICO RIVERA,CA,90660,LOS ANGELES,33.979083,-118.08953
BIG SAVER FOODS #18,E 1313 ARTESIA BLVD,,LONG BEACH,CA,90805,LOS ANGELES,33.875163,-118.17587
BIG SAVER FOODS #01,N 3000 BROADWAY,,LOS ANGELES,CA,90031,LOS ANGELES,34.073377,-118.21014
BIG SAVER FOODS #02,S 5168 HUNTINGTON DR,,LOS ANGELES,CA,90032,LOS ANGELES,34.089239,-118.17026
98TH DISCOUNT MARKET,S 9814 FIGUEROA ST,,LOS ANGELES,CA,90003,LOS ANGELES,33.946743,-118.28223